AGPR ID,Land Description,Address,Suburb,State or Territory,Postcode,Latitude,Longitude
AGPR989,Lot 22 on RP121668,Southern Amberley Road AMBERLEY,AMBERLEY,QLD,4306,-27.64002393,152.6949467
AGPR978,Lot 186 Plan SP103550,0 Norman Road NORMAN GARDENS,NORMAN GARDENS,QLD,4701,-23.32151346,150.5481861
AGPR949,Section 00265 Hundred of Bray plans 2015/240,1410 Charles Point Road COX PENINSULA,COX PENINSULA,NT,822,-12.394,130.621
AGPR947,Section 00033 Hundred of Bray plan A  000715,284 Charles Point Road COX PENINSULA,COX PENINSULA,NT,822,-12.44702417,130.7412552
AGPR929,N.T. Portion  06241 plan S2002/175B          ,7230 Buntine Highway DELAMERE,DELAMERE,NT,852,-15.83033088,131.8304739
AGPR928,Portion 02260 Hundred of Bagot plan S  79/149B,143 Buffalo Creek Road BUFFALO CREEK,BUFFALO CREEK,NT,810,-12.34308215,130.9335549
AGPR925,Lot 00105 Town of Elliott plan S  78/125,9 Browne Street ELLIOTT,ELLIOTT,NT,862,-17.55514024,133.54482
AGPR920,Section 03085 Hundred of Bagot plan S  86/317,Berrimah Road WISHART,WISHART,NT,822,-12.45547485,130.9272811
AGPR915,Lot 1 Plan DP700616 ,91 Gipps Street GWYNNEVILLE,GWYNNEVILLE,NSW,2500,-34.41682541,150.8870568
AGPR905,Lot 2 Plan DP1068011 ,75 Oxford Street PADDINGTON,PADDINGTON,NSW,2021,-33.88557778,151.2230866
AGPR899,Lot 4 Plan 856209,Swan Bay Road SWAN BAY,SWAN BAY,NSW,2324,-32.69551729,151.9274136
AGPR898,Lot 3 Plan 856209,Swan Bay Road SWAN BAY,SWAN BAY,NSW,2324,-32.69554746,151.918645
AGPR850,Lot 1  DP85382,Sturt Highway WAGGA WAGGA,WAGGA WAGGA,NSW,2650,-35.15423444,147.4688432
AGPR842,Lot 3 Plan 33537,SPECTACLE ISLAND,SPECTACLE ISLAND,NSW,2047,-33.84794225,151.1654259
AGPR841,Lot 4 Plan 33537,SPECTACLE ISLAND,SPECTACLE ISLAND,NSW,2047,-33.84878684,151.1641681
AGPR840,Lot 2 Plan 33537,SPECTACLE ISLAND,SPECTACLE ISLAND,NSW,2047,-33.84952597,151.1642648
AGPR839,Lot 1 Plan 33537,SPECTACLE ISLAND,SPECTACLE ISLAND,NSW,2047,-33.84924522,151.1635185
AGPR835,Lot 2  DP607310,Rosemount Road DENMAN,DENMAN,NSW,2328,-32.3665357,150.6171565
AGPR834,Lot 3005  DP1125930,ANZAC Road MOOREBANK,MOOREBANK,NSW,2170,-33.94526121,150.9341793
AGPR833,Lot 2 Plan 107946,2/815 Riverina Highway THURGOONA,THURGOONA,NSW,2640,-36.0828385,147.0038234
AGPR829,Lot 197  DP824047,5 Hawkesbury Valley Way RICHMOND,RICHMOND,NSW,2753,-33.60215628,150.7666733
AGPR825,Lot 1  DP598180,419-499 Londonderry Road LONDONDERRY,LONDONDERRY,NSW,2753,-33.64035708,150.7392348
AGPR824,Lot 1  DP847343,29 Great Western Highway GLENBROOK,GLENBROOK,NSW,2773,-33.76532627,150.6352752
AGPR822,Lot 1  DP776440,740 Henry Lawson Drive PICNIC POINT,PICNIC POINT,NSW,2213,-33.96889826,150.9942944
AGPR821,Lot 5 Plan 233358,Popplewell Road FERN BAY,FERN BAY,NSW,2295,-32.87395223,151.8086096
AGPR815,Lot 21  DP1036030,Parker Street COOTAMUNDRA,COOTAMUNDRA,NSW,2590,-34.64095258,148.0224871
AGPR809,Lot 1  DP607550,Vaucluse Road VAUCLUSE,VAUCLUSE,NSW,2030,-33.85127936,151.2647174
AGPR808,Lot 2 Plan 1143947,New England Highway WHITTINGHAM,WHITTINGHAM,NSW,2330,-32.69480208,151.1862429
AGPR788,Lot 201  DP1022020,Middle Head Road MOSMAN,MOSMAN,NSW,2088,-33.82847636,151.2579257
AGPR786,Lot 10  DP87273,Reserve Road MARRANGAROO,MARRANGAROO,NSW,2790,-33.43793944,150.1498425
AGPR780,Lot 21  DP1084160,Lloyds Road SOUTH BATHURST,SOUTH BATHURST,NSW,2795,-33.44294774,149.57251
AGPR777,Lot 396  DP39627,2 Smith Street PARRAMATTA,PARRAMATTA,NSW,2150,-33.81720416,151.0068417
AGPR776,Lot 1 Plan 107946,Knoble Road THURGOONA,THURGOONA,NSW,2640,-36.06649684,147.0135191
AGPR775,Lot 1  DP1121965,Kings Highway CARWOOLA,CARWOOLA,NSW,2620,-35.35180833,149.3525028
AGPR774,Lot 1  DP1083443,Kings Highway CARWOOLA,CARWOOLA,NSW,2620,-35.34377043,149.3752806
AGPR748,Lot 11  DP758032,176 Mann Street ARMIDALE,ARMIDALE,NSW,2350,-30.51931572,151.6583635
AGPR744,Lot 3  DP1197707,Moorebank Avenue HOLSWORTHY,HOLSWORTHY,NSW,2170,-33.945913,150.927258
AGPR741,Lot 7  DP825745,Heathcote Road PLEASURE POINT,PLEASURE POINT,NSW,2172,-33.9729056,150.9890463
AGPR738,Lot 12  DP849275,Francis Street MUSWELLBROOK,MUSWELLBROOK,NSW,2333,-32.27231819,150.8886296
AGPR737,Lot 101  DP1052469,24 Duke Street COFFS HARBOUR,COFFS HARBOUR,NSW,2450,-30.29729369,153.1202161
AGPR736,Lot 1 Plan 1063890,Edrom Road WONBOYN NORTH,WONBOYN NORTH,NSW,2551,-37.19864663,149.8681226
AGPR734,Lot 10 Plan 83058,Docker Street WAGGA WAGGA,WAGGA WAGGA,NSW,2650,-35.11025983,147.3597876
AGPR723,Lot 4  DP605078,Cliff Street WATSONS BAY,WATSONS BAY,NSW,2030,-33.83776205,151.2811415
AGPR722,Lot 4  DP1130937,Casula Road CASULA,CASULA,NSW,2170,-33.95341735,150.912091
AGPR721,Lot 2  DP1143604,Hoskinstown Road BUNGENDORE,BUNGENDORE,NSW,2621,-35.33359475,149.3836516
AGPR720,Lot 1  DP430997,Camp Road GRETA,GRETA,NSW,2334,-32.70712739,151.3811259
AGPR719,Lot 3  DP845635,Buckingbong Road BOREE CREEK,BOREE CREEK,NSW,2652,-35.05364634,146.4306136
AGPR705,Lot 1 Plan 1101158,Lighthouse Road BEECROFT PENINSULA,BEECROFT PENINSULA,NSW,2540,-35.01456148,150.7843471
AGPR704,Lot 100  DP1049508,Bapaume Road MOOREBANK,MOOREBANK,NSW,2170,-33.94135553,150.9232806
AGPR703,Lot 2  DP837879,Balls Head Road WAVERTON,WAVERTON,NSW,2060,-33.839784,151.1954419
AGPR702,Lot 1  DP837879,Balls Head Road WAVERTON,WAVERTON,NSW,2060,-33.83916039,151.1951386
AGPR700,Lot 1  DP519553,Harvey Road RUTHERFORD,RUTHERFORD,NSW,2320,-32.7144106,151.5218905
AGPR699,Lot 1  DP589243,Wingewarra Street DUBBO,DUBBO,NSW,2830,-32.25199369,148.6207115
AGPR698,Lot 3002  DP1125930,ANZAC Road MOOREBANK,MOOREBANK,NSW,2170,-33.94906043,150.9336965
AGPR6969,Block 1 Section 44 Division Yarralumla,4 Rhodes Place YARRALUMLA,YARRALUMLA,ACT,2600,-35.30416,149.1199
AGPR6961,Block 15 Section 28 Division Parkes,31 Parkes Place West PARKES,PARKES,ACT,2600,-35.29931,149.13525
AGPR6950,Block 1 Section 129 Division Yarralumla,YARRALUMLA,YARRALUMLA,ACT,2600,-35.30348,149.08332
AGPR6949,Block 27 Section 44 Division Yarralumla,State Circle YARRALUMLA,YARRALUMLA,ACT,2600,-35.30395,149.12182
AGPR6948,Block 18 Section 86 Division Yarralumla,Turrana Street YARRALUMLA,YARRALUMLA,ACT,2600,-35.30834,149.11595
AGPR6947,Block 12 Section 17 Division Yarralumla,Alexandrina Drive YARRALUMLA,YARRALUMLA,ACT,2600,-35.29936,149.1135
AGPR6945,Block 1220 Section  District Weston Creek,WESTON CREEK,WESTON CREEK,ACT,2611,-35.30768,149.07067
AGPR6944,Block 1 Section 90 Division Russell,Morshead Drive RUSSELL,RUSSELL,ACT,2600,-35.30061,149.15399
AGPR6943,Block 3 Section 4 Division Parkes,Parkes Way PARKES,PARKES,ACT,2600,-35.29105,149.14141
AGPR6942,Block 10 Section 3 Division Parkes,Parkes Way PARKES,PARKES,ACT,2600,-35.28946,149.13887
AGPR6941,Block 4 Section 23 Division Parkes,Commonwealth Avenue PARKES,PARKES,ACT,2600,-35.30111,149.12603
AGPR6940,Block 4 Section 51 Division Parkes,Kings Avenue PARKES,PARKES,ACT,2600,-35.30475,149.13217
AGPR694,Lot 2  DP1002996,250 Btu Road NOWRA HILL,NOWRA HILL,NSW,2540,-34.94402044,150.5425159
AGPR6939,Block 20 Section 28 Division Parkes,King Edward Terrace PARKES,PARKES,ACT,2600,-35.30056,149.13398
AGPR6938,Block 5 Section 23 Division Parkes,State Circle PARKES,PARKES,ACT,2600,-35.30316,149.12716
AGPR6937,Block 19 Section 29 Division Parkes,Bowen Place PARKES,PARKES,ACT,2600,-35.30128,149.13873
AGPR6936,Block 5 Section 2 Division Parkes,Commonwealth Avenue PARKES,PARKES,ACT,2600,-35.28897,149.13142
AGPR6935,Block 3 Section 51 Division Parkes,State Circle PARKES,PARKES,ACT,2600,-35.30429,149.12947
AGPR6934,Block 3 Section 3 Division Parkes,Coranderrk Street PARKES,PARKES,ACT,2600,-35.28609,149.13509
AGPR6933,Block 12 Section 48 Division Parkes,Parkes Way PARKES,PARKES,ACT,2600,-35.28936,149.13564
AGPR6932,Block 18 Section 28 Division Parkes,44 Elizabeth Terrace PARKES,PARKES,ACT,2600,-35.29824,149.13441
AGPR6931,Block 75 Section  District Molonglo Valley,MOLONGOLO VALLEY,MOLONGOLO VALLEY,ACT,2611,-35.30034,149.05353
AGPR6930,Block 3 Section 51 Division Kingston,Eastlake Parade KINGSTON,KINGSTON,ACT,2600,-35.31012,149.14431
AGPR6928,Block 5 Section 44 Division Kingston,KINGSTON,KINGSTON,ACT,2604,-35.31081,149.1486
AGPR6927,Block 9 Section 67 Division Deakin,18 Beale Street DEAKIN,DEAKIN,ACT,2600,-35.32418,149.08927
AGPR6926,Block 5 Section 37 Division City,Coranderrk Street CITY,CITY,ACT,2600,-35.28578,149.13455
AGPR6925,Block 1 Section 8 Division Capital Hill,Capital Circle CAPITAL HILL,CAPITAL HILL,ACT,2600,-35.30479,149.12593
AGPR6924,Block 1 Section 129 Division Campbell,Morshead Drive CAMPBELL,CAMPBELL,ACT,2600,-35.29951,149.15428
AGPR6923,Block 2 Section 125 Division Campbell,Morshead Drive CAMPBELL,CAMPBELL,ACT,2600,-35.30244,149.15965
AGPR692,Lot 7  DP261444,511 Tocumwal Road MULWALA,MULWALA,NSW,2647,-35.97196418,145.9966024
AGPR6917,Volume 5327 Folio 419,Government Road PORT WAKEFIELD,PORT WAKEFIELD,SA,5550,-34.24834177,138.1823555
AGPR6916,Volume 5246 Folio 311,Lorne Road WILD HORSE PLAINS,WILD HORSE PLAINS,SA,5501,-34.38072175,138.245899
AGPR6903,Volume 5228 Folio 280,Port Wakefield Highway WAKEFIELD,WAKEFIELD,SA,5550,-34.30860603,138.2425256
AGPR690,Lot 1  DP856211,James Road MEDOWIE,MEDOWIE,NSW,2318,-32.75663198,151.9138023
AGPR6899,Block 21 Section 33 Division Acton,Lawson Crescent ACTON,ACTON,ACT,2601,-35.29328,149.11856
AGPR6897,Block 2 Section 55 Division Acton,25 Lennox Crossing ACTON,ACTON,ACT,2601,-35.29198,149.11875
AGPR6894,Block 4 Section 2 Division Parkes,Regatta Place PARKES,PARKES,ACT,2600,-35.28861,149.12813
AGPR6893,Block 1344 District Canberra,Lady Denman Drive CANBERRA CENTRAL,CANBERRA CENTRAL,ACT,2611,-35.29005,149.08145
AGPR6892,Block 1343 District Canberra,245 Lady Denman Drive CANBERRA CENTRAL,CANBERRA CENTRAL,ACT,2611,-35.2885,149.08384
AGPR6891,Block 1342 District Canberra,CANBERRA,CANBERRA,ACT,2600,-35.29248,149.08539
AGPR6890,Block 1339 District Canberra,Lady Denman Drive CANBERRA CENTRAL,CANBERRA CENTRAL,ACT,2611,-35.29227,149.08268
AGPR6889,Block 1338 District Canberra,Lady Denman Drive CANBERRA CENTRAL,CANBERRA CENTRAL,ACT,2611,-35.29575,149.07395
AGPR6888,Block 1300 District Canberra,Barrenjoey Drive CANBERRA CENTRAL,CANBERRA CENTRAL,ACT,2611,-35.29489,149.07496
AGPR6887,Block 1299 District Canberra,Barrenjoey Drive CANBERRA CENTRAL,CANBERRA CENTRAL,ACT,2611,-35.29386,149.08132
AGPR6886,Block 1297 District Canberra,Barrenjoey Drive CANBERRA CENTRAL,CANBERRA CENTRAL ,ACT,2611,-35.28964,149.08381
AGPR6885,Block 31  Division Molonglo Valley,Lady Denman Drive WESTON CREEK,WESTON CREEK,ACT,2611,-35.28982778,149.0788861
AGPR6884,Block 30  Division Molonglo Valley,Lady Denman Drive WESTON CREEK,WESTON CREEK,ACT,2611,-35.29361944,149.0739222
AGPR6883,Block 31 Section 5 Division O'Malley,Culgoa Circuit O'MALLEY,O'MALLEY,ACT,2606,-35.35335,149.10387
AGPR6881,Block 29 Section 5 Division O'Malley,12 Jindalee Crescent O'MALLEY,O'MALLEY,ACT,2606,-35.35353,149.10303
AGPR6880,Block 28 Section 5 Division O'Malley,10 Jindalee Crescent O'MALLEY,O'MALLEY,ACT,2606,-35.35423,149.10314
AGPR6879,Block 27 Section 5 Division O'Malley,8 Jindalee Crescent O'MALLEY,O'MALLEY,ACT,2606,-35.35451,149.10335
AGPR6878,Block 26 Section 5 Division O'Malley,4 Jindalee Crescent O'MALLEY,O'MALLEY,ACT,2606,-35.35471,149.10371
AGPR6877,Block 25 Section 5 Division O'Malley,2 Jindalee Crescent O'MALLEY,O'MALLEY,ACT,2606,-35.35488,149.10417
AGPR6875,Block 24 Section 5 Division O'Malley,24 Culgoa Circuit O'MALLEY,O'MALLEY,ACT,2606,-35.35473,149.10478
AGPR6873,Block 23 Section 5 Division O'Malley,22 Culgoa Circuit O'MALLEY,O'MALLEY,ACT,2606,-35.3543,149.10432
AGPR6871,Block 22 Section 4 Division O'Malley,6 Jindalee Crescent O'MALLEY,O'MALLEY,ACT,2606,-35.35483,149.10215
AGPR6869,Block 21 Section 4 Division O'Malley,11 Dunoon Street O'MALLEY,O'MALLEY,ACT,2606,-35.35145,149.10219
AGPR6868,Block 20 Section 4 Division O'Malley,13 Dunoon Street O'MALLEY,O'MALLEY,ACT,2606,-35.35169,149.10128
AGPR6866,Block 19 Section 4 Division O'Malley,15 Dunoon Street O'MALLEY,O'MALLEY,ACT,2606,-35.35257,149.10127
AGPR6864,Block 18 Section 4 Division O'Malley,17 Dunoon Street O'MALLEY,O'MALLEY,ACT,2606,-35.35335,149.10126
AGPR6863,Block 17 Section 4 Division O'Malley,19 Dunoon Street O'MALLEY,O'MALLEY,ACT,2606,-35.35428,149.10133
AGPR6862,Block 17 Section 86 Division Yarralumla,Moonah Place YARRALUMLA,YARRALUMLA,ACT,2600,-35.30804,149.11765
AGPR6860,Block 16 Section 86 Division Yarralumla,Adelaide Avenue YARRALUMLA,YARRALUMLA,ACT,2600,-35.30894,149.11807
AGPR6858,Block 16 Section 87 Division Russell,Constitution Avenue RUSSELL,RUSSELL,ACT,2600,-35.2967,149.15199
AGPR6857,Block 15 Section 4 Division O'Malley,11 Jindalee Crescent O'MALLEY,O'MALLEY,ACT,2606,-35.35416,149.10204
AGPR6856,Block 15 Section 86 Division Yarralumla,Adelaide Avenue YARRALUMLA,YARRALUMLA,ACT,2600,-35.30841,149.11861
AGPR6853,Block 15 Section 29 Division Parkes,Queen Elizabeth Terrace PARKES,PARKES,ACT,2600,-35.2981,149.13636
AGPR6852,Block 14 Section 4 Division O'Malley,13 Jindalee Crescent O'MALLEY,O'MALLEY,ACT,2606,-35.35335,149.10199
AGPR6849,Block 14 Section 29 Division Parkes,Kings Avenue PARKES,PARKES,ACT,2600,-35.30034,149.13862
AGPR6848,Block 14 Section 17 Division Yarralumla,Mariner Place YARRALUMLA,YARRALUMLA,ACT,2600,-35.29937,149.11609
AGPR6847,Block 14 Section 87 Division Russell,Reg Saunders Way RUSSELL,RUSSELL,ACT,2600,-35.29602,149.15109
AGPR6846,Block 13 Section 4 Division O'Malley,15 Jindalee Crescent O'MALLEY,O'MALLEY,ACT,2606,-35.35256,149.10204
AGPR6843,Block 13 Section 17 Division Yarralumla,Alexandrina Drive YARRALUMLA,YARRALUMLA,ACT,2600,-35.29877,149.11428
AGPR6842,Block 13 Section 87 Division Russell,Reg Saunders Way RUSSELL,RUSSELL,ACT,2600,-35.29649,149.15051
AGPR6841,Block 12 Section 4 Division O'Malley,17 Jindalee Crescent O'MALLEY,O'MALLEY,ACT,2606,-35.35197,149.1023
AGPR6839,Block 11 Section 4 Division O'Malley,19 Jindalee Crescent O'MALLEY,O'MALLEY,ACT,2606,-35.3518,149.10348
AGPR6836,Block 11 Section 48 Division Parkes,Rond Terrace PARKES,PARKES,ACT,2600,-35.29048,149.13801
AGPR6835,Block 10 Section 4 Division O'Malley,9 Dunoon Street O'MALLEY,O'MALLEY,ACT,2606,-35.3512,149.10301
AGPR6831,Block 10 Section 48 Division Parkes,Kings Avenue PARKES,PARKES,ACT,2600,-35.30017,149.14287
AGPR683,Lot 201  DP1091749,9 Slades Road WILLIAMTOWN,WILLIAMTOWN,NSW,2318,-32.7960203,151.8385092
AGPR6827,Block 9 Section 48 Division Parkes,Kings Avenue PARKES,PARKES,ACT,2600,-35.30012,149.14297
AGPR6825,Block 9 Section 4 Division Red Hill,95 Flinders Way RED HILL,RED HILL,ACT,2603,-35.32899,149.12408
AGPR6818,Block 8 Section 48 Division Parkes,Kings Avenue PARKES,PARKES,ACT,2600,-35.30005,149.14309
AGPR6817,Block 8 Section 47 Division Parkes,Kings Avenue PARKES,PARKES,ACT,2600,-35.2999,149.14357
AGPR6814,Block 8 Section 29 Division Parkes,Bowen Place PARKES,PARKES,ACT,2600,-35.30092,149.13898
AGPR6813,Block 8 Section 27 Division Parkes,PARKES,PARKES,ACT,2600,-35.29473,149.12967
AGPR6811,Block 7 Section 121 Division Yarralumla,Dunrossil Drive YARRALUMLA,YARRALUMLA,ACT,2600,-35.31139,149.08772
AGPR681,Lot 2  DP90208,85 Ewing Street MURWILLUMBAH,MURWILLUMBAH,NSW,2484,-28.323852,153.39563
AGPR6805,Block 7 Section 54 Division Parkes,PARKES,PARKES,ACT,2600,-35.28948,149.13295
AGPR6804,Block 7 Section 47 Division Parkes,Kings Avenue PARKES,PARKES,ACT,2600,-35.29981,149.14362
AGPR6802,Block 7 Section 28 Division Parkes,Parkes Place East PARKES,PARKES,ACT,2600,-35.30073,149.13448
AGPR6801,Block 7 Section 27 Division Parkes,Flynn Drive PARKES,PARKES,ACT,2600,-35.29481,149.12976
AGPR6800,Block 7 Section 2 Division Parkes,PARKES,PARKES,ACT,2600,-35.28818,149.13364
AGPR6794,Block 6 Section 54 Division Parkes,PARKES,PARKES,ACT,2600,-35.28926,149.13401
AGPR6793,Block 6 Section 47 Division Parkes,PARKES,PARKES,ACT,2600,-35.29624,149.144
AGPR6791,Block 6 Section 29 Division Parkes,Parkes Place East PARKES,PARKES,ACT,2600,-35.30026,149.13596
AGPR6790,Block 6 Section 27 Division Parkes,Queen Elizabeth Terrace PARKES,PARKES,ACT,2600,-35.29604,149.13294
AGPR6789,Block 6 Section 2 Division Parkes,PARKES,PARKES,ACT,2600,-35.28739,149.13174
AGPR6787,Block 5 Section 121 Division Yarralumla,Dunrossil Drive YARRALUMLA,YARRALUMLA,ACT,2600,-35.30826,149.07741
AGPR6786,Block 5 Section 87 Division Russell,Sir Thomas Blamey Square RUSSELL,RUSSELL,ACT,2600,-35.29735,149.15226
AGPR6782,Block 5 Section 80 Division Deakin,Denison Street DEAKIN,DEAKIN,ACT,2600,-35.32379,149.09037
AGPR6781,Block 5 Section 54 Division Parkes,PARKES,PARKES,ACT,2600,-35.29664,149.14179
AGPR6780,Block 5 Section 48 Division Parkes,Commonwealth Avenue PARKES,PARKES,ACT,2600,-35.29181,149.13873
AGPR6778,Block 5 Section 44 Division Parkes,Commonwealth Avenue PARKES,PARKES,ACT,2600,-35.29045,149.12773
AGPR6777,Block 5 Section 27 Division Parkes,Patrick White Terrace PARKES,PARKES,ACT,2600,-35.29755,149.1296
AGPR6775,Block 4 Section 121 Division Yarralumla,Dunrossil Drive YARRALUMLA,YARRALUMLA,ACT,2600,-35.30773,149.07954
AGPR6774,Block 4 Section 118 Division Yarralumla,Dunrossil Drive YARRALUMLA,YARRALUMLA,ACT,2600,-35.3062,149.08266
AGPR6772,Block 4 Section 89 Division Acton,ACTON,ACTON,ACT,2600,-35.29108,149.09828
AGPR6769,Block 4 Section 54 Division Parkes,PARKES,PARKES,ACT,2600,-35.29755,149.14197
AGPR6768,Block 4 Section 48 Division Parkes,Wendouree Drive PARKES,PARKES,ACT,2600,-35.29325,149.14154
AGPR6767,Block 4 Section 44 Division Parkes,Albert Street PARKES,PARKES,ACT,2600,-35.28984,149.12784
AGPR6766,Block 4 Section 39 Division Reid,ANZAC Parade REID,REID,ACT,2602,-35.28356,149.14574
AGPR6765,Block 4 Section 34 Division Parkes,Parkes Place West PARKES,PARKES,ACT,2600,-35.29993,149.12954
AGPR6764,Block 4 Section 22 Division Yarralumla,Fitzgerald Street YARRALUMLA,YARRALUMLA,ACT,2600,-35.30093,149.11005
AGPR6762,Block 3 Section 121 Division Yarralumla,Dunrossil Drive YARRALUMLA,YARRALUMLA,ACT,2600,-35.30569,149.08088
AGPR6760,Block 3 Section 118 Division Yarralumla,Dunrossil Drive YARRALUMLA,YARRALUMLA,ACT,2600,-35.30391,149.08184
AGPR6759,Block 3 Section 89 Division Acton,ACTON,ACTON,ACT,2600,-35.29015,149.11087
AGPR6754,Block 3 Section 54 Division Parkes,PARKES,PARKES,ACT,2600,-35.29871,149.14181
AGPR6753,Block 3 Section 52 Division Parkes,Kings Avenue PARKES,PARKES,ACT,2600,-35.29994,149.14438
AGPR6751,Block 3 Section 15 Division Barton,Sydney Avenue BARTON,BARTON,ACT,2600,-35.311046,149.131033
AGPR6750,Block 3 Section 2 Division Parkes,Regent Street PARKES,PARKES,ACT,2600,-35.28944,149.12825
AGPR6749,Block 3 Section 1 Division Barton,Brisbane Avenue BARTON,BARTON,ACT,2600,-35.307108,149.131807
AGPR6747,Block 2 Section 121 Division Yarralumla,Dunrossil Drive YARRALUMLA,YARRALUMLA,ACT,2600,-35.30762,149.08325
AGPR6746,Block 2 Section 118 Division Yarralumla,Dunrossil Drive YARRALUMLA,YARRALUMLA,ACT,2600,-35.30414,149.08155
AGPR6744,Block 2 Section 89 Division Acton,PARKES,PARKES,ACT,2600,-35.29426,149.10577
AGPR6741,Block 2 Section 85 Division Yarralumla,Wonia Street YARRALUMLA,YARRALUMLA,ACT,2600,-35.30746,149.11523
AGPR6737,Block 2 Section 60 Division Campbell,ANZAC Parade CAMPBELL,CAMPBELL,ACT,2612,-35.283709,149.146939
AGPR6736,Block 2 Section 56 Division Parkes,Reconciliation Place PARKES,PARKES,ACT,2600,-35.29828,149.13325
AGPR6735,Block 2 Section 55 Division Parkes,Queen Elizabeth Terrace PARKES,PARKES,ACT,2600,-35.29703,149.13226
AGPR6734,Block 2 Section 52 Division Parkes,Kings Avenue PARKES,PARKES,ACT,2600,-35.30028,149.14369
AGPR6733,Block 2 Section 44 Division Parkes,Albert Street PARKES,PARKES,ACT,2600,-35.29044,149.12785
AGPR6731,Block 2 Section 38 Division Barton,PARKES,PARKES,ACT,2600,-35.305164,149.145549
AGPR6725,Block 2 Section 2 Division Parkes,Albert Street PARKES,PARKES,ACT,2600,-35.28879,149.13111
AGPR6724,Block 1 Section 126 Division Yarralumla,Commonwealth Avenue YARRALUMLA,YARRALUMLA,ACT,2600,-35.2954,149.11226
AGPR6723,Block 1 Section 125 Division Yarralumla,Dunrossil Drive YARRALUMLA,YARRALUMLA,ACT,2600,-35.30933,149.08688
AGPR6721,Block 1 Section 89 Division Acton,PARKES,PARKES,ACT,2600,-35.29308,149.10818
AGPR6719,Block 1 Section 81 Division Fyshwick,Dairy Flat Road FYSHWICK,FYSHWICK,ACT,2609,-35.303815,149.156298
AGPR6717,Block 1 Section 59 Division Parkes,Parkes Place East PARKES,PARKES,ACT,2600,-35.30152,149.13249
AGPR6716,Block 1 Section 58 Division Parkes,19 King George Terrace PARKES,PARKES,ACT,2600,-35.30064,149.13113
AGPR6715,Block 1 Section 57 Division Parkes,20 Parkes Place West PARKES,PARKES,ACT,2600,-35.29834,149.13106
AGPR6714,Block 1 Section 54 Division Parkes,PARKES,PARKES,ACT,2600,-35.29527,149.13652
AGPR6713,Block 1 Section 52 Division Parkes,Kings Avenue PARKES,PARKES,ACT,2600,-35.3006,149.14291
AGPR6712,Block 1 Section 50 Division Parkes,Queen Victoria Terrace PARKES,PARKES,ACT,2600,-35.30309,149.12887
AGPR6710,Block 1 Section 45 Division Parkes,Regatta Place PARKES,PARKES,ACT,2600,-35.28913,149.12921
AGPR671,Lot 1  DP712914,74 Auburn Street GOULBURN,GOULBURN,NSW,2580,-34.75877902,149.7142059
AGPR6708,Block 1 Section 44 Division Parkes,Albert Street PARKES,PARKES,ACT,2600,-35.29041,149.12805
AGPR6706,Block 1 Section 43 Division Parkes,Parliament Square PARKES,PARKES,ACT,2600,-35.30288,149.12915
AGPR6705,Block 1 Section 42 Division Parkes,King George Terrace PARKES,PARKES,ACT,2600,-35.30175,149.13015
AGPR6704,Block 1 Section 41 Division Reid,Constitution Avenue REID,REID,ACT,2603,-35.28688,149.14267
AGPR6703,Block 1 Section 40 Division Parkes,Parliament Square PARKES,PARKES,ACT,2600,-35.30336,149.13136
AGPR6702,Block 1 Section 38 Division Parkes,Parliament Square PARKES,PARKES,ACT,2600,-35.30133,149.1279
AGPR6701,Block 1 Section 37 Division Parkes,Parkes Place West PARKES,PARKES,ACT,2600,-35.2996,149.12789
AGPR6700,Block 1 Section 28 Division Parkes,Parkes Place East PARKES,PARKES,ACT,2600,-35.29887,149.13667
AGPR670,Lot 1  DP203045,72 Duke Street GRAFTON,GRAFTON,NSW,2460,-29.68791607,152.9389235
AGPR6699,Block 1 Section 25 Division Parkes,Langdon Crescent PARKES,PARKES,ACT,2600,-35.29816,149.12681
AGPR6698,Block 1 Section 24 Division Parkes,Langdon Crescent PARKES,PARKES,ACT,2600,-35.30014,149.12644
AGPR6697,Block 1 Section 22 Division Parkes,Queen Victoria Terrace PARKES,PARKES,ACT,2600,-35.30418,149.13313
AGPR6696,Block 1 Section 21 Division Parkes,Dorothy Tagney Place PARKES,PARKES,ACT,2600,-35.30331,149.13525
AGPR6695,Block 1 Section 7 Division Capital Hill,State Circle CAPITAL HILL,CAPITAL HILL,ACT,2600,-35.30485,149.1231
AGPR6693,Block 1 Section 1 Division Campbell,ANZAC Parade CAMPBELL,CAMPBELL,ACT,2612,-35.28753,149.14349
AGPR6692,Block 78 District Kowen,KOWEN,KOWEN,ACT,2620,-35.28652,149.29951
AGPR6691,Block 62 District Kowen,Kings Highway KOWEN,KOWEN,ACT,2620,-35.31245,149.36337
AGPR6690,Block 3 Section 65 Division of Deakin District of Canberra Central ,Denison Street DEAKIN,DEAKIN,ACT,2600,-35.317409,149.09385
AGPR669,Lot 2  DP882144,71-83 Thornbury Street PARKES,PARKES,NSW,2870,-33.14413885,148.1885258
AGPR6689,Block 17 Section 3 Division Deakin,5 Adelaide Avenue DEAKIN,DEAKIN,ACT,2600,-35.31133,149.11736
AGPR6687,Block 622 Section 0 Division of Majura District of Majura ,Majura Road MAJURA,MAJURA,ACT,2609,-35.2449,149.19392
AGPR666,Lot 1  DP774880,670 Swan Bay Road SWAN BAY,SWAN BAY,NSW,2324,-32.7043681,151.9354252
AGPR6652,Lot 1 Plan TP512008R ,Turnbull-Woolamai Road WOOLAMAI,WOOLAMAI,VIC,3995,-38.48267069,145.545105
AGPR6651,Lot 1 Plan TP683784K ,109 Angelino Road NARRAWONG,NARRAWONG,VIC,3285,-38.21600081,141.7033425
AGPR6650,Lot 1 Plan TP888705R ,SUNSHINE,SUNSHINE,VIC,3020,-37.78779342,144.8480203
AGPR6649,Plan PS443726E ,Andrea Street ST ALBANS,ST ALBANS,VIC,3021,-37.74892765,144.7957997
AGPR6648,Lot 1 Plan TP320309V ,Fish Point Road FISH POINT,FISH POINT,VIC,3585,-35.43545485,143.7288979
AGPR6647,Lot 1 Plan TP952339K ,Elizabeth Street PRESTON,PRESTON,VIC,3072,-37.73358105,144.9839207
AGPR6645,Lot 1 Plan TP587481Q ,Berrie Rd Road GISBORNE SOUTH,GISBORNE SOUTH,VIC,3437,-37.54727573,144.6426049
AGPR6639,Lot 1 Plan TP897911M ,25 Mayfield Grove ALTONA MEADOWS,ALTONA MEADOWS,VIC,3028,-37.87044701,144.7582701
AGPR6637,Lot 1 Plan TP946536S ,112A Armstrong Street BALLARAT CENTRAL,BALLARAT CENTRAL,VIC,3350,-37.56463462,143.8550179
AGPR663,Lot 32  DP6662,64 Warrendine Street ORANGE,ORANGE,NSW,2800,-33.29069261,149.0956194
AGPR6622,Lot 1 Plan RP 145419 ,Isis Highway BAN BAN SPRINGS,BAN BAN SPRINGS,QLD,4625,-25.67891295,151.8166618
AGPR6619,Lot 283 Plan RP 723525 ,36 Hutchins Street HEATLEY,HEATLEY,QLD,4814,-19.28425097,146.7552467
AGPR6618,Lot 294 Plan RP 724743 ,31 Wilkie Street HEATLEY,HEATLEY,QLD,4814,-19.28457817,146.755002
AGPR6616,Lot 296 Plan RP 724743 ,29 Wilkie Street HEATLEY,HEATLEY,QLD,4814,-19.28467303,146.7552048
AGPR6613,Lot 14 on RP836084,14 London Street ASHGROVE,ASHGROVE,QLD,4060,-27.44230911,152.9682777
AGPR661,Lot 3  DP1081469,63A Swan Bay Road SWAN BAY,SWAN BAY,NSW,2324,-32.69496167,151.9205864
AGPR6607,Lot 02317 Town of Alice Springs plan OP 1325,15 Wilkinson Street CICCONE,CICCONE,NT,870,-23.7003021,133.8700384
AGPR6603,NT Portion  03686 plan CP4953,1120 Victoria Highway BRADSHAW,BRADSHAW,NT,852,-15.1545358,130.3532156
AGPR6602,Lot 03952 Town of Sanderson plan s79/149A,Vanderlin Drive HOLMES,HOLMES,NT,812,-12.37855097,130.9251449
AGPR6600,Lot 05994 Town of Palmerston plan S  96/276,68 University Avenue DURACK,DURACK,NT,830,-12.47931518,130.9766396
AGPR660,Lot 12  DP1050240,60 Palmer Street DUBBO,DUBBO,NSW,2830,-32.26266169,148.616856
AGPR6594,Portion 02780 Hundred of Bagot plan S  82/267,590 Thorngate Road SHOAL BAY,SHOAL BAY,NT,830,-12.41304321,130.9847722
AGPR6593,Section 04457 Hundred of Bagot plan LTO93/073,455 Thorngate Road HOLTZE,HOLTZE,NT,829,-12.43020281,130.9758283
AGPR6583,NT Portion  01502 plan S  74/123,1980 Tanami Road BURT PLAIN,BURT PLAIN,NT,872,-23.51505948,133.6759607
AGPR6572,NT Portion  02834 plan S  87/170,Stuart Highway TINDAL,TINDAL,NT,853,-14.51496439,132.3853684
AGPR6571,Section 03305 Hundred of Bagot plan S  89/193B,620 Stuart Highway COONAWARRA,COONAWARRA,NT,820,-12.43433192,130.9088575
AGPR6570,Section 05730 Hundred of Bagot plan L2004/063 ,405 Stuart Highway EATON,EATON,NT,820,-12.41420648,130.882381
AGPR6569,Portion 01609 Hundred of Bagot plan A  000525,383 Stuart Highway WINNELLIE,WINNELLIE,NT,820,-12.42540779,130.8666712
AGPR6563,Portion 02195 Hundred of Bagot plan S  78/036,430 Stevens Road MICKET CREEK,MICKET CREEK,NT,822,-12.40680407,130.9554667
AGPR6548,Lot 01036 Town of Tennant Creek plan S  72/059,59 Standley Street TENNANT CREEK,TENNANT CREEK,NT,860,-19.65389117,134.1815346
AGPR6547,Lot 01037 Town of Tennant Creek plan S  72/059,55 Standley Street TENNANT CREEK,TENNANT CREEK,NT,860,-19.65399033,134.181956
AGPR654,Lot 1 Plan DP556626 ,570 Parma Road PARMA,PARMA,NSW,2540,-34.94934979,150.5513472
AGPR6534,Lot 07738 Town of Alice Springs plan S  90/075,19 Schwarz Crescent STUART,STUART,NT,870,-23.69181269,133.8836408
AGPR6519,NT Portion  00429 plan S  80/149,Rogervale Drive CONNELLAN,CONNELLAN,NT,873,-23.80416962,133.8963097
AGPR6496,NT Portion  03260 plan S  86/252A,RAAF Radar Road VENN,VENN,NT,852,-14.57610012,132.6364914
AGPR6489,NT Portion  01503 plan S  74/124,9399 Plenty Highway ANMATJERE,ANMATJERE,NT,872,-22.96312745,134.4439773
AGPR6481,NT Portion  00838 plan A  000379,Old Cooinda Road KAKADU,KAKADU,NT,822,-12.90660861,132.5322266
AGPR6422,Lot 1 Plan DP1135704 ,25P Sibbick Street RUSSELL LEA,RUSSELL LEA,NSW,2046,-33.8595074,151.1379038
AGPR640,Lot 1 Plan 546514,61 Knoble Road WIRLINGA,WIRLINGA,NSW,2640,-36.05717891,147.0275977
AGPR639,Lot 94  DP840347,51 Balls Head Road WAVERTON,WAVERTON,NSW,2060,-33.84084178,151.1957203
AGPR629,Lot 1  DP880525,49 Petersham Road LEETON,LEETON,NSW,2705,-34.56709706,146.4136753
AGPR628,Lot 1  DP90691,49 Lachlan Street SOUTH KEMPSEY,SOUTH KEMPSEY,NSW,2440,-31.09568287,152.838219
AGPR627,Lot 1  DP135368,49 East Street LIDCOMBE,LIDCOMBE,NSW,2141,-33.87012028,151.0458247
AGPR626,Lot 1  DP827532,48A South Creek Road DEE WHY,DEE WHY,NSW,2099,-33.74154329,151.2927496
AGPR617,Lot 1  DP817695,40 Wharf Road NEWCASTLE EAST,NEWCASTLE EAST,NSW,2300,-32.92359596,151.7902522
AGPR6156,Lot 00086 Town of Adelaide River plan OP 001209,105 Memorial Terrace ADELAIDE RIVER,ADELAIDE RIVER,NT,846,-13.23074233,131.1142218
AGPR6154,Section 02986 Hundred of Bagot plan S  83/142D,1275 Mcmillans Road KNUCKEY LAGOON,KNUCKEY LAGOON,NT,828,-12.44240649,130.9612335
AGPR6153,Lot 00355 Town of Borroloola plan TBK01/038,14 Mcintyre Street BORROLOOLA,BORROLOOLA,NT,854,-16.07097003,136.3044342
AGPR6152,Unit  132 Lot 06379 Town of Darwin plan UP 94/062,50 Marina Boulevard LARRAKEYAH,LARRAKEYAH,NT,820,-12.45156335,130.8236166
AGPR614,Lot 1  DP440625,40 Beach Street KOGARAH,KOGARAH,NSW,2217,-33.95929524,151.1420416
AGPR6139,Section 02732 Hundred of Hughes plan S  79/143,Litchfield Park Road CHARLOTTE,CHARLOTTE,NT,822,-12.81509311,130.7926901
AGPR601,Lot 1021  DP1055066,405A Brunker Road ADAMSTOWN,ADAMSTOWN,NSW,2289,-32.94328891,151.7255911
AGPR599,Lot 1627  DP752011,34A Moore Park Road PADDINGTON,PADDINGTON,NSW,2021,-33.88671324,151.2221154
AGPR598,Lot 1  DP90645,347 Brookfield Avenue BROKEN HILL,BROKEN HILL,NSW,2880,-31.95711617,141.4379085
AGPR5972,NT Portion  00895 plan A  000419,Kakadu Highway KAKADU,KAKADU,NT,822,-12.95024642,132.5570345
AGPR5959,Lot 00998 Town of Tennant Creek plan B  000076,Udall Road TENNANT CREEK,TENNANT CREEK,NT,860,-19.63341298,134.1820046
AGPR5949,Section 05623 Hundred of Bagot plan LTO2003/052,145 Howard Springs Road HOWARD SPRINGS,HOWARD SPRINGS,NT,835,-12.47860216,131.0211967
AGPR5930,Section 05729 Hundred of Bagot plan L2004/064 ,40 Henry Wrigley Drive EATON,EATON,NT,820,-12.40596304,130.8755901
AGPR5922,NT Portion  04130 plan LTO91/006,1000 Hatt Road HUGH,HUGH,NT,872,-23.80074436,133.7274549
AGPR5907,Section 04204 Hundred of Strangways plan S  98/181,90 Girraween Road MCMINNS LAGOON,MCMINNS LAGOON,NT,822,-12.52949824,131.0556464
AGPR5905,Unit  5 Lot 00597 Town of Alice Springs plan U2009/049,2 Giles Street EAST SIDE,EAST SIDE,NT,870,-23.69204333,133.8863966
AGPR5904,Lot 01659 Town of Alice Springs plan A  000213,15 George Crescent CICCONE,CICCONE,NT,870,-23.69909489,133.8743462
AGPR5903,Lot 00820 Town of Borroloola plan S2004/217,8 Garawa Street BORROLOOLA,BORROLOOLA,NT,854,-16.0532563,136.3052987
AGPR5900,Lot 05231 Town of Darwin plan S  78/019,2 Frances Bay Drive DARWIN CITY,DARWIN CITY,NT,800,-12.46442511,130.8486972
AGPR5899,NT Portion  03251 plan S  85/256,1 Fox Road VENN,VENN,NT,852,-14.51137521,132.445256
AGPR5807,Block 3 Section 6 Division Capital Hill,Capital Circle CAPITAL HILL,CAPITAL HILL,ACT,2600,-35.310995,149.127264
AGPR5806,Block 2 Section 6 Division Capital Hill,Capital Circle CAPITAL HILL,CAPITAL HILL,ACT,2600,-35.310746,149.127752
AGPR5805,Block 2 Section 5 Division Capital Hill,Capital Circle CAPITAL HILL,CAPITAL HILL,ACT,2600,-35.311723,149.123592
AGPR5804,Block 2 Section 3 Division Capital Hill,Capital Circle CAPITAL HILL,CAPITAL HILL,ACT,2600,-35.306114,149.12816
AGPR5803,Block 1 Section 9 Division Capital Hill,Capital Circle CAPITAL HILL,CAPITAL HILL,ACT,2600,-35.31069,149.121275
AGPR5802,Block 1 Section 4 Division Capital Hill,Capital Circle CAPITAL HILL,CAPITAL HILL,ACT,2600,-35.307471,149.128879
AGPR5801,Block 1 Section 2 Division Capital Hill,Capital Circle CAPITAL HILL,CAPITAL HILL,ACT,2600,-35.30575,149.12138
AGPR5792,Lot 1 on SP144588,PINE ISLET,PINE ISLET,QLD,4704,-21.654749,150.221418
AGPR5788,Lot 3 on SP142787,LADY ELLIOT ISLAND,LADY ELLIOT ISLAND,QLD,4805,-24.11520601,152.7131058
AGPR5787,Lot 2 on SP142787,LADY ELLIOT ISLAND,LADY ELLIOT ISLAND,QLD,4805,-24.11272448,152.7154799
AGPR5786,Lot 1 on SP142787,LADY ELLIOT ISLAND,LADY ELLIOT ISLAND,QLD,4805,-24.11480517,152.7118838
AGPR5780,Lot 383 on SR874,LOW ISLES,LOW ISLES,QLD,4873,-16.384472,145.55976
AGPR578,Lot 323  DP571103,319 Oakley Lane SINGLETON MILITARY AREA,SINGLETON MILITARY AREA,NSW,2331,-32.74658466,151.1550587
AGPR5779,Lot 284 on SL8055,108A Aitcheson Street MOGGILL,MOGGILL,QLD,4070,-27.58624515,152.8577251
AGPR5778,Lot 890 on SL12406,100 Taylor Street BULIMBA,BULIMBA,QLD,4171,-27.44507512,153.0696172
AGPR5776,Lot 2 on SH1,CLERKE ISLAND,CLERKE ISLAND,QLD,4874,-11.974609,143.290385
AGPR5775,Lot 1 on SD2,HANNAH ISLAND,HANNAH ISLAND,QLD,4892,-13.863321,143.716302
AGPR5772,Lot 12 on RP898338,ALBANY ROCK REEF,ALBANY ROCK REEF,QLD,4876,-10.719455,142.629756
AGPR5771,Lot 11 on RP898338,ALBANY ROCK REEF,ALBANY ROCK REEF,QLD,4876,-10.719065,142.629241
AGPR5770,CA 6 Parish of Tarrawarra North,1017 Myers Road TOOLANGI,TOOLANGI,VIC,3777,-37.56958473,145.4904586
AGPR5769,Lot 150 on RP607999,Goonndoon Street GLADSTONE,GLADSTONE,QLD,4680,-23.85541352,151.262801
AGPR5767,Lot 136 on RP607346,257 Goodoon Street SOUTH GLADSTONE,SOUTH GLADSTONE,QLD,4680,-23.85511785,151.2626453
AGPR5755,Lot 500 P006210 ,Corner Alderbury and Selby Street JOLIMONT,JOLIMONT,WA,6014,-31.94587864,115.7986047
AGPR575,Lot 211  DP1073391,3 Suakin Street PYMBLE,PYMBLE,NSW,2073,-33.74935531,151.1437402
AGPR5744,Lot RES2 of Plan LP141202,51 Templeton Street WANTIRNA,WANTIRNA,VIC,3152,-37.86164333,145.2262707
AGPR5728,Block 3 Section 28 Division Pialligo,Pialligo Avenue PIALLIGO,PIALLIGO,ACT,2609,-35.32216,149.19436
AGPR5726,Lot 3043 P046730 ,Jalan Patai Road CHRISTMAS ISLAND,CHRISTMAS ISLAND,WA,6798,-10.42823764,105.6733004
AGPR5725,Lot 3004 P042349 ,Murray Road CHRISTMAS ISLAND,CHRISTMAS ISLAND,WA,6798,-10.4263515,105.6738512
AGPR572,Lot 1  DP534820,299 Kapooka Drive KAPOOKA,KAPOOKA,NSW,2661,-35.15203487,147.2749448
AGPR566,Lot 2  DP1037078,272 Kissing Point Road ERMINGTON,ERMINGTON,NSW,2115,-33.7998904,151.0580015
AGPR5578,Lot 16 P163352 ,Great Northern Highway PORT HEDLAND,PORT HEDLAND,WA,6721,-20.38580207,118.6355577
AGPR5563,Lot 431 P004683 ,Dunreath Drive REDCLIFFE,REDCLIFFE,WA,6104,-31.9435634,115.972947
AGPR5538,Lot 127 P226009 ,Karel Avenue JANDAKOT,JANDAKOT,WA,6164,-32.10478504,115.8851139
AGPR5516,Lot 144 P162673 ,Derby Highway DERBY AIRPORT,DERBY AIRPORT,WA,6728,-17.37429484,123.6686105
AGPR5514,Lot 108 P218313 ,William Keeling Crescent COCOS (KEELING) ISLAND,COCOS (KEELING) ISLAND,WA,6799,-12.19245087,96.83211765
AGPR5513,Lot 110 P218319 ,William Keeling Crescent COCOS (KEELING) ISLAND,COCOS (KEELING) ISLAND,WA,6799,-12.19220845,96.83164891
AGPR5512,Lot 111 P218319 ,William Keeling Crescent COCOS (KEELING) ISLAND,COCOS (KEELING) ISLAND,WA,6799,-12.19196224,96.83150716
AGPR5511,Lot 114 P218319 ,William Keeling Crescent COCOS (KEELING) ISLAND,COCOS (KEELING) ISLAND,WA,6799,-12.19132276,96.83106559
AGPR5510,Lot 116 P218319 ,William Keeling Crescent COCOS (KEELING) ISLAND,COCOS (KEELING) ISLAND,WA,6799,-12.19090515,96.8307559
AGPR5509,Lot 119 P218319 ,William Keeling Crescent COCOS (KEELING) ISLAND,COCOS (KEELING) ISLAND,WA,6799,-12.19026827,96.8303183
AGPR5508,Lot 141 P218319 ,William Keeling Crescent COCOS (KEELING) ISLAND,COCOS (KEELING) ISLAND,WA,6799,-12.18973423,96.83022388
AGPR5507,Lot 221 P218319 ,William Keeling Crescent COCOS (KEELING) ISLAND,COCOS (KEELING) ISLAND,WA,6799,-12.19042693,96.83006334
AGPR5506,Lot 337 P027316 ,William Keeling Crescent COCOS (KEELING) ISLAND,COCOS (KEELING) ISLAND,WA,6799,-12.1897837,96.82998588
AGPR5505,Lot 336 P027316 ,William Keeling Crescent COCOS (KEELING) ISLAND,COCOS (KEELING) ISLAND,WA,6799,-12.18948963,96.82977948
AGPR5504,Lot 182 P218319 ,William Keeling Crescent COCOS (KEELING) ISLAND,COCOS (KEELING) ISLAND,WA,6799,-12.18916435,96.82916566
AGPR5503,Lot 332 P194602 ,COCOS (KEELING) ISLAND,COCOS (KEELING) ISLAND,WA,6799,-12.18622092,96.85525547
AGPR5502,Lot 331 P194602 ,COCOS (KEELING) ISLAND,COCOS (KEELING) ISLAND,WA,6799,-12.16814099,96.85037986
AGPR5501,Lot 126 P218313 ,Qantas Close COCOS (KEELING) ISLAND,COCOS (KEELING) ISLAND,WA,6799,-12.19373968,96.83279583
AGPR5500,Lot 125 P218313 ,Qantas Close COCOS (KEELING) ISLAND,COCOS (KEELING) ISLAND,WA,6799,-12.19347528,96.83278221
AGPR5499,Lot 104 P218313 ,Qantas Close COCOS (KEELING) ISLAND,COCOS (KEELING) ISLAND,WA,6799,-12.19352605,96.83239386
AGPR5498,Lot 103 P218313 ,Qantas Close COCOS (KEELING) ISLAND,COCOS (KEELING) ISLAND,WA,6799,-12.19332645,96.83220558
AGPR5497,Lot 102 P218313 ,Qantas Close COCOS (KEELING) ISLAND,COCOS (KEELING) ISLAND,WA,6799,-12.19308749,96.83204745
AGPR5496,Lot 167 P218316 ,Qantas Close COCOS (KEELING) ISLAND,COCOS (KEELING) ISLAND,WA,6799,-12.1928964,96.83163511
AGPR5495,Lot 131 P218313 ,Orion Close COCOS (KEELING) ISLAND,COCOS (KEELING) ISLAND,WA,6799,-12.19403792,96.83326733
AGPR5494,Lot 648 P043303 ,Murray Road CHRISTMAS ISLAND,CHRISTMAS ISLAND,WA,6798,-10.44622207,105.6636821
AGPR5493,Lot 282 P218258 ,Murray Road CHRISTMAS ISLAND,CHRISTMAS ISLAND,WA,6798,-10.43598583,105.6685888
AGPR5492,Lot 176 P218319 ,Nelson Mandela Walk COCOS (KEELING) ISLAND,COCOS (KEELING) ISLAND,WA,6799,-12.18888549,96.83039641
AGPR5491,Lot 175 P218319 ,Nelson Mandela Walk COCOS (KEELING) ISLAND,COCOS (KEELING) ISLAND,WA,6799,-12.18868654,96.83030643
AGPR5490,Lot 170 P218319 ,Nelson Mandela Walk COCOS (KEELING) ISLAND,COCOS (KEELING) ISLAND,WA,6799,-12.18925486,96.83018864
AGPR5489,Lot 169 P218319 ,Nelson Mandela Walk COCOS (KEELING) ISLAND,COCOS (KEELING) ISLAND,WA,6799,-12.19041167,96.83096899
AGPR5488,Lot 160 P218319 ,Nelson Mandela Walk COCOS (KEELING) ISLAND,COCOS (KEELING) ISLAND,WA,6799,-12.18948146,96.83069607
AGPR5487,Lot 140 P218319 ,Nelson Mandela Walk COCOS (KEELING) ISLAND,COCOS (KEELING) ISLAND,WA,6799,-12.19116651,96.83141845
AGPR5486,Lot 139 P218319 ,Nelson Mandela Walk COCOS (KEELING) ISLAND,COCOS (KEELING) ISLAND,WA,6799,-12.19141714,96.83158223
AGPR5485,Lot 138 P218319 ,Nelson Mandela Walk COCOS (KEELING) ISLAND,COCOS (KEELING) ISLAND,WA,6799,-12.19170109,96.83176952
AGPR5484,Lot 135 P218319 ,Nelson Mandela Walk COCOS (KEELING) ISLAND,COCOS (KEELING) ISLAND,WA,6799,-12.18973307,96.8308937
AGPR5483,Lot 128 P218319 ,Nelson Mandela Walk COCOS (KEELING) ISLAND,COCOS (KEELING) ISLAND,WA,6799,-12.189989,96.83105072
AGPR5482,Lot 127 P218313 ,Airforce Road COCOS (KEELING) ISLAND,COCOS (KEELING) ISLAND,WA,6799,-12.19265019,96.83266082
AGPR5481,Lot 124 P218319 ,Nelson Mandela Walk COCOS (KEELING) ISLAND,COCOS (KEELING) ISLAND,WA,6799,-12.19198303,96.83227083
AGPR5480,Lot 3046 P046733 ,Jin Pantai Road CHRISTMAS ISLAND,CHRISTMAS ISLAND,WA,6798,-10.43041703,105.6689042
AGPR5479,Lot 473 P219656 ,Jin Pantai Road CHRISTMAS ISLAND,CHRISTMAS ISLAND,WA,6798,-10.43296674,105.6626366
AGPR5478,Lot 3045 P046732 ,Jin Pantai Road CHRISTMAS ISLAND,CHRISTMAS ISLAND,WA,6798,-10.42835922,105.662364
AGPR5477,Lot 3044 P046732 ,Jin Pantai Road CHRISTMAS ISLAND,CHRISTMAS ISLAND,WA,6798,-10.4300313,105.6620768
AGPR5476,Lot 339 P027660 ,Jin Kembang Molok Road COCOS (KEELING) ISLAND,COCOS (KEELING) ISLAND,WA,6799,-12.12041791,96.89520776
AGPR5475,Lot 168 P218313 ,Hajidun Lane COCOS (KEELING) ISLAND,COCOS (KEELING) ISLAND,WA,6799,-12.19207931,96.83209641
AGPR5474,Lot 650 P041815 ,Jin Pantai Road CHRISTMAS ISLAND,CHRISTMAS ISLAND,WA,6798,-10.43003415,105.6688064
AGPR5473,Lot 3074 P050962 ,Kalgoorlie Street CHRISTMAS ISLAND,CHRISTMAS ISLAND,WA,6798,-10.47385899,105.5781809
AGPR5472,Lot 338 P027660 ,Jin Kembang Molok Road COCOS (KEELING) ISLAND,COCOS (KEELING) ISLAND,WA,6799,-12.12133131,96.89378516
AGPR5471,Lot 342 P042274 ,Airforce Road COCOS (KEELING) ISLAND,COCOS (KEELING) ISLAND,WA,6799,-12.20567732,96.84317866
AGPR5470,Lot 166 P218317 ,Airforce Road COCOS (KEELING) ISLAND,COCOS (KEELING) ISLAND,WA,6799,-12.19546428,96.83437046
AGPR5469,Lot 209 P218225 ,Airforce Road COCOS (KEELING) ISLAND,COCOS (KEELING) ISLAND,WA,6799,-12.18786248,96.8339753
AGPR5468,Lot 341 P042274 ,Airforce Road COCOS (KEELING) ISLAND,COCOS (KEELING) ISLAND,WA,6799,-12.19136899,96.833876
AGPR5467,Lot 132 P218317 ,Airforce Road COCOS (KEELING) ISLAND,COCOS (KEELING) ISLAND,WA,6799,-12.19431129,96.83347539
AGPR5466,Lot 350 P042274 ,Airforce Base Road COCOS (KEELING) ISLAND,COCOS (KEELING) ISLAND,WA,6799,-12.18819988,96.82989815
AGPR5465,Lot 1 P044688 ,5 Buffett Close COCOS (KEELING) ISLAND,COCOS (KEELING) ISLAND,WA,6799,-12.18505984,96.82571572
AGPR5464,Lot 18 P044688 ,41 Buffett Close COCOS (KEELING) ISLAND,COCOS (KEELING) ISLAND,WA,6799,-12.18455548,96.8258519
AGPR5463,Lot 14 P044688 ,33 Buffett Close COCOS (KEELING) ISLAND,COCOS (KEELING) ISLAND,WA,6799,-12.18420752,96.82531964
AGPR5462,Lot 11 P044688 ,27 Buffett Close COCOS (KEELING) ISLAND,COCOS (KEELING) ISLAND,WA,6799,-12.18388303,96.82489481
AGPR5461,Lot 10 P044688 ,25 Buffett Close COCOS (KEELING) ISLAND,COCOS (KEELING) ISLAND,WA,6799,-12.18401059,96.82469061
AGPR5460,Lot 3005 P044688 ,18 Buffett Close COCOS (KEELING) ISLAND,COCOS (KEELING) ISLAND,WA,6799,-12.18455768,96.82633624
AGPR5459,Lot 3004 P044688 ,14 Buffett Close COCOS (KEELING) ISLAND,COCOS (KEELING) ISLAND,WA,6799,-12.18483383,96.82607553
AGPR5458,Lot 4 P044688 ,13 Buffett Close COCOS (KEELING) ISLAND,COCOS (KEELING) ISLAND,WA,6799,-12.18477161,96.82530912
AGPR5457,Lot 3 P044688 ,11 Buffett Close COCOS (KEELING) ISLAND,COCOS (KEELING) ISLAND,WA,6799,-12.18486251,96.82544687
AGPR5456,Lot 199 P218318 ,Sydney Highway COCOS (KEELING) ISLAND,COCOS (KEELING) ISLAND,WA,6799,-12.18835312,96.82868938
AGPR5455,Lot 347 P042274 ,Alexander Street COCOS (KEELING) ISLAND,COCOS (KEELING) ISLAND,WA,6799,-12.18612777,96.82867762
AGPR5454,Lot 179 P218318 ,Sydney Highway COCOS (KEELING) ISLAND,COCOS (KEELING) ISLAND,WA,6799,-12.1872183,96.82857298
AGPR5453,Lot 346 P042274 ,Alexander Street COCOS (KEELING) ISLAND,COCOS (KEELING) ISLAND,WA,6799,-12.18599222,96.82838804
AGPR5452,Lot 345 P042274 ,Alexander Street COCOS (KEELING) ISLAND,COCOS (KEELING) ISLAND,WA,6799,-12.18564368,96.82837624
AGPR5451,Lot 187 P218318 ,Alexander Street COCOS (KEELING) ISLAND,COCOS (KEELING) ISLAND,WA,6799,-12.1863898,96.82824959
AGPR5450,Lot 222 P218316 ,Sydney Highway COCOS (KEELING) ISLAND,COCOS (KEELING) ISLAND,WA,6799,-12.18836367,96.82820509
AGPR5449,Lot 188 P218318 ,Emden Walk COCOS (KEELING) ISLAND,COCOS (KEELING) ISLAND,WA,6799,-12.1864973,96.82806544
AGPR5448,Lot 344 P042274 ,Alexander Street COCOS (KEELING) ISLAND,COCOS (KEELING) ISLAND,WA,6799,-12.18501274,96.82799666
AGPR5445,Lot 184 P218318 ,Sydney Highway COCOS (KEELING) ISLAND,COCOS (KEELING) ISLAND,WA,6799,-12.18566325,96.82752329
AGPR5444,Lot 323 P193057 ,Alexander Street COCOS (KEELING) ISLAND,COCOS (KEELING) ISLAND,WA,6799,-12.18476987,96.82724149
AGPR5441,Lot 340 P042275 ,Beacon Heights Road COCOS (KEELING) ISLAND,COCOS (KEELING) ISLAND,WA,6799,-12.18654441,96.82666762
AGPR5440,Lot 317 P218315 ,Beacon Heights Road COCOS (KEELING) ISLAND,COCOS (KEELING) ISLAND,WA,6799,-12.18636233,96.82645496
AGPR5439,Lot 316 P218315 ,Sydney Highway COCOS (KEELING) ISLAND,COCOS (KEELING) ISLAND,WA,6799,-12.18531481,96.82643753
AGPR5437,Lot 313 P218315 ,Buffett Close COCOS (KEELING) ISLAND,COCOS (KEELING) ISLAND,WA,6799,-12.18503749,96.82599159
AGPR5435,Lot 197 P218315 ,Beacon Heights Road COCOS (KEELING) ISLAND,COCOS (KEELING) ISLAND,WA,6799,-12.18597673,96.82587129
AGPR5427,Lot 334 P040839 ,Sydney Highway COCOS (KEELING) ISLAND,COCOS (KEELING) ISLAND,WA,6799,-12.13796473,96.82358242
AGPR5426,Lot 335 P042276 ,Sydney Highway COCOS (KEELING) ISLAND,COCOS (KEELING) ISLAND,WA,6799,-12.1375079,96.8233588
AGPR5425,Lot 351 P042276 ,Sydney Highway COCOS (KEELING) ISLAND,COCOS (KEELING) ISLAND,WA,6799,-12.1373387,96.82242076
AGPR5424,Lot 326 P219651 ,Sydney Highway COCOS (KEELING) ISLAND,COCOS (KEELING) ISLAND,WA,6799,-12.17095581,96.82126227
AGPR5423,Lot 328 P219652 ,Sydney Highway COCOS (KEELING) ISLAND,COCOS (KEELING) ISLAND,WA,6799,-12.18222591,96.82105667
AGPR5422,Lot 329 P219652 ,Sydney Highway COCOS (KEELING) ISLAND,COCOS (KEELING) ISLAND,WA,6799,-12.18018439,96.81994348
AGPR5421,Lot 327 P219651 ,Sydney Highway COCOS (KEELING) ISLAND,COCOS (KEELING) ISLAND,WA,6799,-12.1749412,96.81959827
AGPR5420,Lot 207 P218218 ,Sydney Highway COCOS (KEELING) ISLAND,COCOS (KEELING) ISLAND,WA,6799,-12.14760693,96.81905079
AGPR5419,Lot 206 P218218 ,Sydney Highway COCOS (KEELING) ISLAND,COCOS (KEELING) ISLAND,WA,6799,-12.14342673,96.81893052
AGPR5418,Lot 202 P218218 ,Sydney Highway COCOS (KEELING) ISLAND,COCOS (KEELING) ISLAND,WA,6799,-12.14532863,96.81864105
AGPR5417,Lot 143 P218315 ,Beacon Heights Road COCOS (KEELING) ISLAND,COCOS (KEELING) ISLAND,WA,6799,-12.1862169,96.82623317
AGPR5416,Lot 597 P037939 ,Vagabond Road CHRISTMAS ISLAND,CHRISTMAS ISLAND,WA,6798,-10.43078091,105.6896124
AGPR5415,Lot 643 P043305 ,Tong Chee Road CHRISTMAS ISLAND,CHRISTMAS ISLAND,WA,6798,-10.42664233,105.6728584
AGPR5414,Lot 3062 P047929 ,Poon Saan Road CHRISTMAS ISLAND,CHRISTMAS ISLAND,WA,6798,-10.42325799,105.6794742
AGPR5413,Lot 3012 P037939 ,Phosphate Hill Road CHRISTMAS ISLAND,CHRISTMAS ISLAND,WA,6798,-10.43432936,105.6889991
AGPR5412,Lot 3019 P043321 ,Murray Road CHRISTMAS ISLAND,CHRISTMAS ISLAND,WA,6798,-10.42069256,105.6827786
AGPR5411,Lot 308 P218346 ,Murray Road CHRISTMAS ISLAND,CHRISTMAS ISLAND,WA,6798,-10.42538663,105.6796761
AGPR5410,Lot 300 P218346 ,Murray Road CHRISTMAS ISLAND,CHRISTMAS ISLAND,WA,6798,-10.42564428,105.6792595
AGPR5409,Lot 3022 P043297 ,Murray Road CHRISTMAS ISLAND,CHRISTMAS ISLAND,WA,6798,-10.42751859,105.6765456
AGPR5408,Lot 384 P192118 ,Murray Road CHRISTMAS ISLAND,CHRISTMAS ISLAND,WA,6798,-10.4167359,105.6763677
AGPR5407,Lot 441 P219039 ,Murray Road CHRISTMAS ISLAND,CHRISTMAS ISLAND,WA,6798,-10.42071917,105.6747105
AGPR5406,Lot 554 P221294 ,Murray Road CHRISTMAS ISLAND,CHRISTMAS ISLAND,WA,6798,-10.43029672,105.6737491
AGPR5405,Lot 3020 P043319 ,Margaret Knoll Road CHRISTMAS ISLAND,CHRISTMAS ISLAND,WA,6798,-10.47488864,105.6790209
AGPR5404,Lot 626 P040592 ,San Chye Loh Road CHRISTMAS ISLAND,CHRISTMAS ISLAND,WA,6798,-10.42628083,105.6778692
AGPR5403,Lot 581 P029362 ,Murray Road CHRISTMAS ISLAND,CHRISTMAS ISLAND,WA,6798,-10.42248156,105.683428
AGPR5402,Lot 577 P029289 ,Lam Lok Loh Road CHRISTMAS ISLAND,CHRISTMAS ISLAND,WA,6798,-10.42997607,105.6750387
AGPR5401,Lot 576 P029289 ,Murray Road CHRISTMAS ISLAND,CHRISTMAS ISLAND,WA,6798,-10.43024629,105.6744683
AGPR5400,Lot 575 P029289 ,Murray Road CHRISTMAS ISLAND,CHRISTMAS ISLAND,WA,6798,-10.43168074,105.6723491
AGPR5399,Lot 573 P042349 ,Club Road CHRISTMAS ISLAND,CHRISTMAS ISLAND,WA,6798,-10.42671263,105.6737831
AGPR5398,Lot 567 P026095 ,Plant Hill Road CHRISTMAS ISLAND,CHRISTMAS ISLAND,WA,6798,-10.42446618,105.6837646
AGPR5397,Lot 561 P026420 ,Murray Road CHRISTMAS ISLAND,CHRISTMAS ISLAND,WA,6798,-10.41931567,105.6746277
AGPR5396,Lot 559 P026420 ,Murray Road CHRISTMAS ISLAND,CHRISTMAS ISLAND,WA,6798,-10.41704251,105.6755358
AGPR5395,Lot 558 P195416 ,Hawks Road CHRISTMAS ISLAND,CHRISTMAS ISLAND,WA,6798,-10.43013815,105.6815646
AGPR5394,Lot 557 P061473 ,Quarry Road CHRISTMAS ISLAND,CHRISTMAS ISLAND,WA,6798,-10.42491447,105.6871768
AGPR5393,Lot 556 P195417 ,Phosphate Hill Road CHRISTMAS ISLAND,CHRISTMAS ISLAND,WA,6798,-10.42937241,105.6841459
AGPR5392,Lot 533 P194782 ,Arenga Road CHRISTMAS ISLAND,CHRISTMAS ISLAND,WA,6798,-10.42168023,105.6827323
AGPR5391,Lot 519 P220518 ,Vagabond Road CHRISTMAS ISLAND,CHRISTMAS ISLAND,WA,6798,-10.43317791,105.6868638
AGPR5390,Lot 518 P220518 ,Vagabond Road CHRISTMAS ISLAND,CHRISTMAS ISLAND,WA,6798,-10.43354661,105.6856077
AGPR5389,Lot 517 P220518 ,Hawks Road CHRISTMAS ISLAND,CHRISTMAS ISLAND,WA,6798,-10.43292202,105.6838279
AGPR5388,Lot 516 P220518 ,Vagabond Road CHRISTMAS ISLAND,CHRISTMAS ISLAND,WA,6798,-10.43358467,105.6840173
AGPR5387,Lot 515 P220518 ,Vagabond Road CHRISTMAS ISLAND,CHRISTMAS ISLAND,WA,6798,-10.43295811,105.6845833
AGPR5386,Lot 514 P220518 ,Exiles Place CHRISTMAS ISLAND,CHRISTMAS ISLAND,WA,6798,-10.43354507,105.6821826
AGPR5385,Lot 513 P220518 ,Exiles Place CHRISTMAS ISLAND,CHRISTMAS ISLAND,WA,6798,-10.43394924,105.6821164
AGPR5384,Lot 511 P220518 ,Exiles Place CHRISTMAS ISLAND,CHRISTMAS ISLAND,WA,6798,-10.43432117,105.6830473
AGPR5383,Lot 507 P220143 ,Quarry Road CHRISTMAS ISLAND,CHRISTMAS ISLAND,WA,6798,-10.42594561,105.6856563
AGPR5382,Lot 502 P220143 ,Quarry Road CHRISTMAS ISLAND,CHRISTMAS ISLAND,WA,6798,-10.4257338,105.6853849
AGPR5381,Lot 496 P219672 ,Nursery Court CHRISTMAS ISLAND,CHRISTMAS ISLAND,WA,6798,-10.43245237,105.6685607
AGPR5380,Lot 491 P193346 ,Nursery Road CHRISTMAS ISLAND,CHRISTMAS ISLAND,WA,6798,-10.44009881,105.6686928
AGPR5379,Lot 490 P193346 ,Nursery Road CHRISTMAS ISLAND,CHRISTMAS ISLAND,WA,6798,-10.44044795,105.6686353
AGPR5378,Lot 489 P219762 ,Golf Course Road CHRISTMAS ISLAND,CHRISTMAS ISLAND,WA,6798,-10.42692662,105.7015799
AGPR5377,Lot 487 P219654 ,Gaze Road CHRISTMAS ISLAND,CHRISTMAS ISLAND,WA,6798,-10.42000417,105.673383
AGPR5376,Lot 472 P219656 ,Murray Road CHRISTMAS ISLAND,CHRISTMAS ISLAND,WA,6798,-10.43758493,105.6680067
AGPR5375,Lot 449 P192388 ,Sung Miaw Low Road CHRISTMAS ISLAND,CHRISTMAS ISLAND,WA,6798,-10.43152172,105.6739443
AGPR5374,Lot 437 P192389 ,Nursery Court CHRISTMAS ISLAND,CHRISTMAS ISLAND,WA,6798,-10.43217895,105.6703849
AGPR5373,Lot 433 P219040 ,Poon Saan Road CHRISTMAS ISLAND,CHRISTMAS ISLAND,WA,6798,-10.42469595,105.678633
AGPR5372,Lot 430 P192386 ,Murray Road CHRISTMAS ISLAND,CHRISTMAS ISLAND,WA,6798,-10.42276845,105.6827455
AGPR5371,Lot 421 P219803 ,Kiln Place CHRISTMAS ISLAND,CHRISTMAS ISLAND,WA,6798,-10.4483596,105.6610519
AGPR5370,Lot 417 P219803 ,Kiln Place CHRISTMAS ISLAND,CHRISTMAS ISLAND,WA,6798,-10.44763127,105.6627825
AGPR5369,Lot 403 P218614 ,Murray Road CHRISTMAS ISLAND,CHRISTMAS ISLAND,WA,6798,-10.4324542,105.6710532
AGPR5368,Lot 402 P218614 ,Tong Yan Loh Road CHRISTMAS ISLAND,CHRISTMAS ISLAND,WA,6798,-10.43069327,105.6742207
AGPR5367,Lot 383 P192117 ,Nursery Court CHRISTMAS ISLAND,CHRISTMAS ISLAND,WA,6798,-10.43200517,105.6705925
AGPR5366,Lot 381 P219061 ,Gold Course Road CHRISTMAS ISLAND,CHRISTMAS ISLAND,WA,6798,-10.41620365,105.6880055
AGPR5365,Lot 379 P219061 ,Golf Course Road CHRISTMAS ISLAND,CHRISTMAS ISLAND,WA,6798,-10.41661519,105.6877558
AGPR5364,Lot 313 P191470 ,Poon Saan Road CHRISTMAS ISLAND,CHRISTMAS ISLAND,WA,6798,-10.42429663,105.6791572
AGPR5363,Lot 3036 P046731 ,Kong Wai Loh Lane CHRISTMAS ISLAND,CHRISTMAS ISLAND,WA,6798,-10.42335797,105.6816956
AGPR5362,Lot 3035 P046731 ,Murray Road CHRISTMAS ISLAND,CHRISTMAS ISLAND,WA,6798,-10.42368241,105.6812409
AGPR5361,Lot 3034 P046731 ,Murray Road CHRISTMAS ISLAND,CHRISTMAS ISLAND,WA,6798,-10.42416127,105.680818
AGPR5360,Lot 3030 P046728 ,San Chye Loh Road CHRISTMAS ISLAND,CHRISTMAS ISLAND,WA,6798,-10.42560435,105.6788483
AGPR5359,Lot 3017 P042350 ,Kong Wai Loh Lane CHRISTMAS ISLAND,CHRISTMAS ISLAND,WA,6798,-10.42508932,105.6803153
AGPR5358,Lot 3016 P042350 ,Kong Wai Loh Lane CHRISTMAS ISLAND,CHRISTMAS ISLAND,WA,6798,-10.42488547,105.6805216
AGPR5357,Lot 3009 P042347 ,Gaze Road CHRISTMAS ISLAND,CHRISTMAS ISLAND,WA,6798,-10.42079729,105.6737972
AGPR5356,Lot 3008 P042347 ,Gaze Road CHRISTMAS ISLAND,CHRISTMAS ISLAND,WA,6798,-10.42072664,105.6739058
AGPR5355,Lot 294 P218309 ,Poon Saan Road CHRISTMAS ISLAND,CHRISTMAS ISLAND,WA,6798,-10.4230991,105.6812476
AGPR5354,Lot 288 P218420 ,Jalan Pantai Road CHRISTMAS ISLAND,CHRISTMAS ISLAND,WA,6798,-10.42880605,105.6715653
AGPR5353,Lot 284 P036509 ,Phosphate Hill Road CHRISTMAS ISLAND,CHRISTMAS ISLAND,WA,6798,-10.42537339,105.6837042
AGPR5352,Lot 252 P218162 ,Taman Sweetland Circuit CHRISTMAS ISLAND,CHRISTMAS ISLAND,WA,6798,-10.42310621,105.6842778
AGPR5351,Lot 234 P218157 ,Poon Saan Road CHRISTMAS ISLAND,CHRISTMAS ISLAND,WA,6798,-10.42472958,105.6793688
AGPR5350,Lot 226 P218150 ,Plant Hill Road CHRISTMAS ISLAND,CHRISTMAS ISLAND,WA,6798,-10.42494363,105.6822321
AGPR5349,Lot 202 P218137 ,Lorong Kampong Melayu Road CHRISTMAS ISLAND,CHRISTMAS ISLAND,WA,6798,-10.4288149,105.6720213
AGPR5348,Lot 135 P218117 ,Pai Chin Lu Road CHRISTMAS ISLAND,CHRISTMAS ISLAND,WA,6798,-10.42161416,105.6784647
AGPR5347,Lot 3059 P046329 ,Lily Beach Road CHRISTMAS ISLAND,CHRISTMAS ISLAND,WA,6798,-10.46250096,105.703592
AGPR5346,Lot 3058 P046329 ,Lily Beach Road CHRISTMAS ISLAND,CHRISTMAS ISLAND,WA,6798,-10.46034675,105.7033901
AGPR5345,Lot 3057 P046329 ,Lily Beach Road CHRISTMAS ISLAND,CHRISTMAS ISLAND,WA,6798,-10.46118397,105.7028208
AGPR5344,Lot 3063 P050961 ,Lily Beach Road CHRISTMAS ISLAND,CHRISTMAS ISLAND,WA,6798,-10.46756886,105.7028176
AGPR5343,Lot 3013 P037939 ,Lily Beach Road CHRISTMAS ISLAND,CHRISTMAS ISLAND,WA,6798,-10.43550774,105.6897705
AGPR5342,Lot 407 P192159 ,Lam Lok Loh Road CHRISTMAS ISLAND,CHRISTMAS ISLAND,WA,6798,-10.43427464,105.6702763
AGPR5341,Lot 640 P043304 ,Jin Pantai Road CHRISTMAS ISLAND,CHRISTMAS ISLAND,WA,6798,-10.42699751,105.6720632
AGPR5340,Lot 623 P040591 ,Golf Course Road CHRISTMAS ISLAND,CHRISTMAS ISLAND,WA,6798,-10.44938256,105.7072888
AGPR5339,Lot 3028 P044665 ,Gaze Road CHRISTMAS ISLAND,CHRISTMAS ISLAND,WA,6798,-10.41698638,105.6833689
AGPR5338,Lot 602 P037938 ,Gaze Road CHRISTMAS ISLAND,CHRISTMAS ISLAND,WA,6798,-10.41748887,105.674345
AGPR5337,Lot 324 P218434 ,Gaze Road CHRISTMAS ISLAND,CHRISTMAS ISLAND,WA,6798,-10.42183728,105.6734093
AGPR5336,Lot 325 P218434 ,Gaze Road CHRISTMAS ISLAND,CHRISTMAS ISLAND,WA,6798,-10.42206347,105.6733286
AGPR5335,Lot 3061 P046331 ,Gaze Road CHRISTMAS ISLAND,CHRISTMAS ISLAND,WA,6798,-10.42129751,105.6730678
AGPR5334,Lot 3060 P046331 ,Gaze Road CHRISTMAS ISLAND,CHRISTMAS ISLAND,WA,6798,-10.42144106,105.6728854
AGPR5333,Lot 197 P218134 ,Gaze Road CHRISTMAS ISLAND,CHRISTMAS ISLAND,WA,6798,-10.42455896,105.6728255
AGPR5332,Lot 642 P041816 ,Gaze Road CHRISTMAS ISLAND,CHRISTMAS ISLAND,WA,6798,-10.42267174,105.6727573
AGPR5331,Lot 3001 P041813 ,Gaze Road CHRISTMAS ISLAND,CHRISTMAS ISLAND,WA,6798,-10.42401611,105.6726982
AGPR5330,Lot 483 P219653 ,Gaze Road CHRISTMAS ISLAND,CHRISTMAS ISLAND,WA,6798,-10.42423176,105.6724379
AGPR5329,Lot 649 P043304 ,Gaze Road CHRISTMAS ISLAND,CHRISTMAS ISLAND,WA,6798,-10.4261441,105.6724277
AGPR5328,Lot 488 P219653 ,Gaze Road CHRISTMAS ISLAND,CHRISTMAS ISLAND,WA,6798,-10.42491624,105.6722308
AGPR5327,Lot 482 P219653 ,Gaze Road CHRISTMAS ISLAND,CHRISTMAS ISLAND,WA,6798,-10.42465547,105.6714792
AGPR5326,Lot 637 P043304 ,Gaze Road CHRISTMAS ISLAND,CHRISTMAS ISLAND,WA,6798,-10.42465341,105.6714002
AGPR5325,Lot 512 P220518 ,Exiles Place CHRISTMAS ISLAND,CHRISTMAS ISLAND,WA,6798,-10.43504782,105.6825269
AGPR5324,Lot 572 P030504 ,Club Road CHRISTMAS ISLAND,CHRISTMAS ISLAND,WA,6798,-10.4272192,105.6732029
AGPR5323,Lot 644 P043305 ,Club Road CHRISTMAS ISLAND,CHRISTMAS ISLAND,WA,6798,-10.4262063,105.6730169
AGPR5322,Lot 3067 P050962 ,Kalgoorlie Street CHRISTMAS ISLAND,CHRISTMAS ISLAND,WA,6798,-10.4747038,105.5807683
AGPR5321,Lot 3055 P046328 ,Lily Beach Road CHRISTMAS ISLAND,CHRISTMAS ISLAND,WA,6798,-10.45863883,105.7036872
AGPR5320,Lot 499 P193407 ,Golf Course Road CHRISTMAS ISLAND,CHRISTMAS ISLAND,WA,6798,-10.44973559,105.7061873
AGPR5319,Lot 578 P219762 ,Golf Course Road CHRISTMAS ISLAND,CHRISTMAS ISLAND,WA,6798,-10.42665495,105.7028063
AGPR5318,Lot 579 P219761 ,Golf Course Road CHRISTMAS ISLAND,CHRISTMAS ISLAND,WA,6798,-10.41547579,105.7021453
AGPR5317,Lot 3027 P043218 ,Quarry Road CHRISTMAS ISLAND,CHRISTMAS ISLAND,WA,6798,-10.4236895,105.6909131
AGPR5316,Lot 235 P218157 ,San Chye Road CHRISTMAS ISLAND,CHRISTMAS ISLAND,WA,6798,-10.42475893,105.6794586
AGPR5315,Lot 405 P191988 ,Murray Road CHRISTMAS ISLAND,CHRISTMAS ISLAND,WA,6798,-10.42611857,105.6790638
AGPR5314,Lot 3000 P041814 ,Gaze Road CHRISTMAS ISLAND,CHRISTMAS ISLAND,WA,6798,-10.41495075,105.6774761
AGPR5313,Lot 639 P043304 ,Jalan Patai Road CHRISTMAS ISLAND,CHRISTMAS ISLAND,WA,6798,-10.42587298,105.6723452
AGPR5312,Lot 534 P219122 ,Irvine Beach Road CHRISTMAS ISLAND,CHRISTMAS ISLAND,WA,6798,-10.44278219,105.6698101
AGPR5311,Lot 585 P030932 ,9 Jalan Pantai Road CHRISTMAS ISLAND,CHRISTMAS ISLAND,WA,6798,-10.42759612,105.6725547
AGPR5310,Lot 583 P030932 ,9 Jalan Pantai Road CHRISTMAS ISLAND,CHRISTMAS ISLAND,WA,6798,-10.42721765,105.6724623
AGPR531,Lot 120  DP773863,255 Mclachlan Street ORANGE,ORANGE,NSW,2800,-33.27321758,149.1094102
AGPR5309,Lot 149 P218121 ,97 Gaze Road CHRISTMAS ISLAND,CHRISTMAS ISLAND,WA,6798,-10.41671253,105.679879
AGPR5308,Lot 3050 P046749 ,96-108 Gaze Road CHRISTMAS ISLAND,CHRISTMAS ISLAND,WA,6798,-10.41690546,105.6792025
AGPR5307,Lot 3049 P046749 ,92-94 Gaze Road CHRISTMAS ISLAND,CHRISTMAS ISLAND,WA,6798,-10.41650311,105.6782857
AGPR5306,Lot 3031 P046728 ,9 San Chye Road CHRISTMAS ISLAND,CHRISTMAS ISLAND,WA,6798,-10.42575726,105.678598
AGPR5305,Lot 144 P218120 ,8 Triadic Crescent CHRISTMAS ISLAND,CHRISTMAS ISLAND,WA,6798,-10.41674388,105.6815388
AGPR5304,Lot 70 P218113 ,8 Pai Chin Road CHRISTMAS ISLAND,CHRISTMAS ISLAND,WA,6798,-10.42119982,105.678563
AGPR5303,Lot 530 P194782 ,8 Arenga Close CHRISTMAS ISLAND,CHRISTMAS ISLAND,WA,6798,-10.42149838,105.6817434
AGPR5302,Lot 541 P194967 ,77 Gaze Road CHRISTMAS ISLAND,CHRISTMAS ISLAND,WA,6798,-10.41566334,105.6774002
AGPR5301,Lot 161 P218123 ,75 Gaze Road CHRISTMAS ISLAND,CHRISTMAS ISLAND,WA,6798,-10.41555199,105.6770845
AGPR5300,Lot 269 P218165 ,43046 Poon Saan Road CHRISTMAS ISLAND,CHRISTMAS ISLAND,WA,6798,-10.42546889,105.6781971
AGPR530,Lot 1 Plan 575037,246 Marius Street East TAMWORTH,TAMWORTH,NSW,2340,-31.09700598,150.9393778
AGPR5299,Lot 34 P218105 ,7 Jalan Ketam Road CHRISTMAS ISLAND,CHRISTMAS ISLAND,WA,6798,-10.43277266,105.6718834
AGPR5298,Lot 485 P219654 ,7 Gaze Road CHRISTMAS ISLAND,CHRISTMAS ISLAND,WA,6798,-10.42282806,105.672669
AGPR5297,Lot 574 P042349 ,7 Club Road CHRISTMAS ISLAND,CHRISTMAS ISLAND,WA,6798,-10.42620271,105.674001
AGPR5296,Lot 273 P218167 ,62 Gaze Road CHRISTMAS ISLAND,CHRISTMAS ISLAND,WA,6798,-10.41660278,105.6750808
AGPR5295,Lot 166 P218124 ,6 Rocky Point Crescent CHRISTMAS ISLAND,CHRISTMAS ISLAND,WA,6798,-10.41474047,105.6759536
AGPR5293,Lot 145 P218121 ,6 Coconut Grove CHRISTMAS ISLAND,CHRISTMAS ISLAND,WA,6798,-10.4161449,105.6795852
AGPR5292,Lot 529 P194782 ,6 Arenga Close CHRISTMAS ISLAND,CHRISTMAS ISLAND,WA,6798,-10.42144044,105.6813791
AGPR5291,Lot 340 P218534 ,59 Seaview Drive CHRISTMAS ISLAND,CHRISTMAS ISLAND,WA,6798,-10.4212074,105.6759236
AGPR5290,Lot 339 P218534 ,57 Seaview Drive CHRISTMAS ISLAND,CHRISTMAS ISLAND,WA,6798,-10.42124912,105.6757063
AGPR529,Lot 1625 Plan DP752011 ,75C Oxford Street PADDINGTON,PADDINGTON,NSW,2021,-33.88507733,151.225207
AGPR5289,Lot 1044 P038056 ,53 Taman Sweetland Circuit CHRISTMAS ISLAND,CHRISTMAS ISLAND,WA,6798,-10.42247807,105.6845866
AGPR5288,Lot 546 P194969 ,5 San Chye Loh Road CHRISTMAS ISLAND,CHRISTMAS ISLAND,WA,6798,-10.42545307,105.6790236
AGPR5287,Lot 270 P218165 ,5 Poon Saan Road CHRISTMAS ISLAND,CHRISTMAS ISLAND,WA,6798,-10.42505637,105.6788449
AGPR5286,Lot 108 P218116 ,5 Jalan Perak Road CHRISTMAS ISLAND,CHRISTMAS ISLAND,WA,6798,-10.42231955,105.6786408
AGPR5285,Lot 299 P191122 ,5 Club Road CHRISTMAS ISLAND,CHRISTMAS ISLAND,WA,6798,-10.42588996,105.673524
AGPR5284,Lot 634 P040829 ,5 Canberra Place CHRISTMAS ISLAND,CHRISTMAS ISLAND,WA,6798,-10.42713347,105.6729116
AGPR5283,Lot 446 P219040 ,49 Poon Saan Road CHRISTMAS ISLAND,CHRISTMAS ISLAND,WA,6798,-10.42381192,105.6792626
AGPR5282,Lot 466 P219193 ,47 Poon Saan Road CHRISTMAS ISLAND,CHRISTMAS ISLAND,WA,6798,-10.42383533,105.6789936
AGPR5281,Lot 343 P218534 ,46 Seaview Drive CHRISTMAS ISLAND,CHRISTMAS ISLAND,WA,6798,-10.42169331,105.6760505
AGPR5280,Lot 465 P219193 ,45 Poon Saan Road CHRISTMAS ISLAND,CHRISTMAS ISLAND,WA,6798,-10.42396061,105.6788584
AGPR5279,Lot 464 P219193 ,43 Poon Saan Road CHRISTMAS ISLAND,CHRISTMAS ISLAND,WA,6798,-10.42408198,105.6787195
AGPR5278,Lot 560 P026420 ,42-56 Gaze Road CHRISTMAS ISLAND,CHRISTMAS ISLAND,WA,6798,-10.41810549,105.6748892
AGPR5277,Lot 345 P218534 ,42 Seaview Drive CHRISTMAS ISLAND,CHRISTMAS ISLAND,WA,6798,-10.42184357,105.6756329
AGPR5276,Lot 222 P218149 ,4 Tong Yan Loh Road CHRISTMAS ISLAND,CHRISTMAS ISLAND,WA,6798,-10.43035538,105.6751676
AGPR5275,Lot 165 P218124 ,4 Rocky Point Crescent CHRISTMAS ISLAND,CHRISTMAS ISLAND,WA,6798,-10.41480285,105.6755921
AGPR5274,Lot 312 P191470 ,4 Poon Saan Road CHRISTMAS ISLAND,CHRISTMAS ISLAND,WA,6798,-10.4244527,105.6792676
AGPR5273,Lot 51 P218108 ,4 Lam Lok Loh Road CHRISTMAS ISLAND,CHRISTMAS ISLAND,WA,6798,-10.4294612,105.6757027
AGPR5271,Lot 528 P194782 ,4 Arenga Close CHRISTMAS ISLAND,CHRISTMAS ISLAND,WA,6798,-10.4213825,105.6810148
AGPR5270,Lot 364 P218534 ,39 Seaview Drive CHRISTMAS ISLAND,CHRISTMAS ISLAND,WA,6798,-10.42337577,105.6755637
AGPR5269,Lot 355 P218534 ,38 Seaview Drive CHRISTMAS ISLAND,CHRISTMAS ISLAND,WA,6798,-10.42276753,105.6754522
AGPR5268,Lot 363 P218534 ,37 Seaview Drive CHRISTMAS ISLAND,CHRISTMAS ISLAND,WA,6798,-10.42342109,105.6757544
AGPR5267,Lot 540 P026096 ,37 Gaze Road CHRISTMAS ISLAND,CHRISTMAS ISLAND,WA,6798,-10.41871775,105.6739265
AGPR5266,Lot 362 P218534 ,35 Seaview Drive CHRISTMAS ISLAND,CHRISTMAS ISLAND,WA,6798,-10.42334048,105.676066
AGPR5265,Lot 484 P219653 ,42858 Gaze Road CHRISTMAS ISLAND,CHRISTMAS ISLAND,WA,6798,-10.42307945,105.6727731
AGPR5264,Lot 357 P218534 ,34 Seaview Drive CHRISTMAS ISLAND,CHRISTMAS ISLAND,WA,6798,-10.42293447,105.6757643
AGPR5263,Lot 360 P218534 ,31 Seaview Drive CHRISTMAS ISLAND,CHRISTMAS ISLAND,WA,6798,-10.42311322,105.6763318
AGPR5262,Lot 53 P218110 ,31 Lam Lok Loh Road CHRISTMAS ISLAND,CHRISTMAS ISLAND,WA,6798,-10.43453462,105.6705166
AGPR5261,Lot 416 P192158 ,3 Lorong Kampong Melayu Road CHRISTMAS ISLAND,CHRISTMAS ISLAND,WA,6798,-10.42816612,105.6722998
AGPR5260,Lot 412 P218746 ,3 Jalan Pantai Road CHRISTMAS ISLAND,CHRISTMAS ISLAND,WA,6798,-10.42635747,105.6730529
AGPR5258,Lot 570 P026701 ,3 Club Road CHRISTMAS ISLAND,CHRISTMAS ISLAND,WA,6798,-10.42599583,105.6730179
AGPR5257,Lot 370 P191764 ,3 Abbotts Nest Road CHRISTMAS ISLAND,CHRISTMAS ISLAND,WA,6798,-10.43413265,105.6711082
AGPR5256,Lot 619 P039529 ,2 Tong Yan Loh Road CHRISTMAS ISLAND,CHRISTMAS ISLAND,WA,6798,-10.43060057,105.6749741
AGPR5255,Lot 645 P040603 ,2 Tong Yan Loh Road CHRISTMAS ISLAND,CHRISTMAS ISLAND,WA,6798,-10.43126714,105.6743054
AGPR5254,Lot 2 S031715,27 Lam Lok Loh Road CHRISTMAS ISLAND,CHRISTMAS ISLAND,WA,6798,-10.43378468,105.6704815
AGPR5253,Lot 1 S031715,27 Lam Lok Loh Road CHRISTMAS ISLAND,CHRISTMAS ISLAND,WA,6798,-10.43367737,105.6705225
AGPR5252,Lot 118 P218117 ,27 Seaview Drive CHRISTMAS ISLAND,CHRISTMAS ISLAND,WA,6798,-10.42269974,105.6766858
AGPR5251,Lot 526 P194618 ,26-32 Poon Saan Road CHRISTMAS ISLAND,CHRISTMAS ISLAND,WA,6798,-10.4237284,105.6803764
AGPR5250,Lot 119 P218117 ,25 Seaview Drive CHRISTMAS ISLAND,CHRISTMAS ISLAND,WA,6798,-10.42247675,105.6768881
AGPR5249,Lot 450 P219056 ,24 Sin Sang Road CHRISTMAS ISLAND,CHRISTMAS ISLAND,WA,6798,-10.43498032,105.6680502
AGPR5248,Lot 432 P219040 ,22 Poon Saan Road CHRISTMAS ISLAND,CHRISTMAS ISLAND,WA,6798,-10.42448374,105.6789703
AGPR5247,Lot 536 P194980 ,21 Jalan Pantai Road CHRISTMAS ISLAND,CHRISTMAS ISLAND,WA,6798,-10.43001882,105.6698477
AGPR5246,Lot 117 P218117 ,2 Sunset Place CHRISTMAS ISLAND,CHRISTMAS ISLAND,WA,6798,-10.42179202,105.6767693
AGPR5245,Lot 259 P218163 ,2 Sung Miaw Road CHRISTMAS ISLAND,CHRISTMAS ISLAND,WA,6798,-10.43165431,105.6736583
AGPR5244,Lot 455 P218648 ,2 Rocky Point Crescent CHRISTMAS ISLAND,CHRISTMAS ISLAND,WA,6798,-10.41513724,105.6758175
AGPR5243,Lot 431 P219040 ,2 Poon Saan Road CHRISTMAS ISLAND,CHRISTMAS ISLAND,WA,6798,-10.42425827,105.6795454
AGPR5242,Lot 67 P218113 ,2 Pai Chin Lu Road CHRISTMAS ISLAND,CHRISTMAS ISLAND,WA,6798,-10.42154529,105.6793193
AGPR5241,Lot 221 P218149 ,2 Lam Lok Loh Road CHRISTMAS ISLAND,CHRISTMAS ISLAND,WA,6798,-10.43015397,105.6753794
AGPR5239,Lot 147 P218121 ,2 Coconut Grove CHRISTMAS ISLAND,CHRISTMAS ISLAND,WA,6798,-10.41637771,105.6803554
AGPR5238,Lot 527 P194782 ,2 Arenga Close CHRISTMAS ISLAND,CHRISTMAS ISLAND,WA,6798,-10.42132623,105.6806559
AGPR5237,Lot 537 P194980 ,19 Jalan Pantai Road CHRISTMAS ISLAND,CHRISTMAS ISLAND,WA,6798,-10.42982346,105.6702967
AGPR5236,Lot 3 P218102 ,18-20 Nursery Court CHRISTMAS ISLAND,CHRISTMAS ISLAND,WA,6798,-10.43288558,105.6699931
AGPR5235,Lot 443 P192390 ,13 Gaze Road CHRISTMAS ISLAND,CHRISTMAS ISLAND,WA,6798,-10.42205439,105.6729555
AGPR5234,Lot 532 P194782 ,12 Arenga Close CHRISTMAS ISLAND,CHRISTMAS ISLAND,WA,6798,-10.42161547,105.6824694
AGPR5233,Lot 1004 D094854 ,11 Silver City Road CHRISTMAS ISLAND,CHRISTMAS ISLAND,WA,6798,-10.42187282,105.6802493
AGPR5230,Lot 627 P040592 ,41579 San Chye Loh Road CHRISTMAS ISLAND,CHRISTMAS ISLAND,WA,6798,-10.42606033,105.6782075
AGPR523,Lot 7  DP244683,24-162 Percival Street CLARENDON,CLARENDON,NSW,2756,-33.60173394,150.7975512
AGPR5229,Lot 85 P218114 ,11 Jalan Perak Road CHRISTMAS ISLAND,CHRISTMAS ISLAND,WA,6798,-10.42312832,105.6781919
AGPR5228,Lot 582 P030932 ,11 Jalan Pantai Road CHRISTMAS ISLAND,CHRISTMAS ISLAND,WA,6798,-10.4275235,105.6721331
AGPR5227,Lot 641 P041816 ,11 Gaze Road CHRISTMAS ISLAND,CHRISTMAS ISLAND,WA,6798,-10.42235866,105.6727904
AGPR5226,Lot 188 P218129 ,11 Club Road CHRISTMAS ISLAND,CHRISTMAS ISLAND,WA,6798,-10.42727863,105.6734932
AGPR5225,Lot 268 P218165 ,44105 Poon Saan Road CHRISTMAS ISLAND,CHRISTMAS ISLAND,WA,6798,-10.4251198,105.6779712
AGPR5223,Lot 531 P194782 ,10 Arenga Close CHRISTMAS ISLAND,CHRISTMAS ISLAND,WA,6798,-10.42155632,105.6821077
AGPR5222,Lot 569 P026701 ,1 Tong Chee Road CHRISTMAS ISLAND,CHRISTMAS ISLAND,WA,6798,-10.42595466,105.673194
AGPR5221,Lot 1045 P029362 ,1 Murray Road CHRISTMAS ISLAND,CHRISTMAS ISLAND,WA,6798,-10.42287842,105.6824794
AGPR5220,Lot 290 P218420 ,1 Jalan Masjid Road CHRISTMAS ISLAND,CHRISTMAS ISLAND,WA,6798,-10.42789344,105.67203
AGPR5218,Lot 3042 P044674 ,1 Gaze Road CHRISTMAS ISLAND,CHRISTMAS ISLAND,WA,6798,-10.42353575,105.6728195
AGPR5217,Lot 590 P037942 ,Lily Beach Road CHRISTMAS ISLAND,CHRISTMAS ISLAND,WA,6798,-10.46298057,105.7040916
AGPR5216,Lot 492 P219762 ,Golf Course Road CHRISTMAS ISLAND,CHRISTMAS ISLAND,WA,6798,-10.42596796,105.7014782
AGPR5215,Lot 598 P037939 ,North South Baseline Road CHRISTMAS ISLAND,CHRISTMAS ISLAND,WA,6798,-10.44947516,105.6906138
AGPR5214,Lot 287 P218420 ,Jalan Patai Road CHRISTMAS ISLAND,CHRISTMAS ISLAND,WA,6798,-10.42885185,105.6713287
AGPR5213,Lot 616 P039518 ,Jalan Patai Road CHRISTMAS ISLAND,CHRISTMAS ISLAND,WA,6798,-10.42948048,105.6695831
AGPR5212,Lot 185 P218127 ,Lily Beach Road CHRISTMAS ISLAND,CHRISTMAS ISLAND,WA,6798,-10.46759646,105.7106493
AGPR5211,Lot 493 P219762 ,Golf Course Road CHRISTMAS ISLAND,CHRISTMAS ISLAND,WA,6798,-10.44627252,105.708213
AGPR5210,Lot 625 P040591 ,Golf Course Road CHRISTMAS ISLAND,CHRISTMAS ISLAND,WA,6798,-10.45031481,105.7062746
AGPR5209,Lot 624 P040591 ,Golf Course Road CHRISTMAS ISLAND,CHRISTMAS ISLAND,WA,6798,-10.43597994,105.7059855
AGPR5208,Lot 3052 P046328 ,Golf Course Road CHRISTMAS ISLAND,CHRISTMAS ISLAND,WA,6798,-10.45710819,105.7043057
AGPR5207,Lot 3054 P046328 ,Golf Course Road CHRISTMAS ISLAND,CHRISTMAS ISLAND,WA,6798,-10.45577398,105.7033104
AGPR5206,Lot 3053 P046328 ,Golf Course Road CHRISTMAS ISLAND,CHRISTMAS ISLAND,WA,6798,-10.45349374,105.7029397
AGPR5205,Lot 510 P219762 ,Golf Course Road CHRISTMAS ISLAND,CHRISTMAS ISLAND,WA,6798,-10.42571823,105.7021803
AGPR5204,Lot 3051 P046328 ,Lily Beach Road CHRISTMAS ISLAND,CHRISTMAS ISLAND,WA,6798,-10.45487232,105.702082
AGPR5203,Lot 3056 P046329 ,Lily Beach Road CHRISTMAS ISLAND,CHRISTMAS ISLAND,WA,6798,-10.46084224,105.7020351
AGPR5202,Lot 3048 P047279 ,Golf Course Road CHRISTMAS ISLAND,CHRISTMAS ISLAND,WA,6798,-10.42135457,105.7019996
AGPR5201,Lot 385 P192116 ,Quarry Road CHRISTMAS ISLAND,CHRISTMAS ISLAND,WA,6798,-10.42560164,105.6952346
AGPR5200,Lot 3014 P037939 ,Gaze Road CHRISTMAS ISLAND,CHRISTMAS ISLAND,WA,6798,-10.43475024,105.6919462
AGPR5199,Lot 462 P219061 ,Gaze Road CHRISTMAS ISLAND,CHRISTMAS ISLAND,WA,6798,-10.41604449,105.6905604
AGPR5198,Lot 592 P047247 ,North South Baseline Road CHRISTMAS ISLAND,CHRISTMAS ISLAND,WA,6798,-10.454138,105.6888058
AGPR5197,Lot 461 P219061 ,Gaze Road CHRISTMAS ISLAND,CHRISTMAS ISLAND,WA,6798,-10.41733901,105.68654
AGPR5196,Lot 3029 P044665 ,Gaze Road CHRISTMAS ISLAND,CHRISTMAS ISLAND,WA,6798,-10.41681502,105.6851772
AGPR5195,Lot 253 P218162 ,Taman Sweetland Circuit CHRISTMAS ISLAND,CHRISTMAS ISLAND,WA,6798,-10.42353869,105.684822
AGPR5194,Lot 520 P194505 ,Lister Place CHRISTMAS ISLAND,CHRISTMAS ISLAND,WA,6798,-10.42293561,105.6829201
AGPR5193,Lot 306 P218309 ,Murray Road CHRISTMAS ISLAND,CHRISTMAS ISLAND,WA,6798,-10.42229235,105.6823653
AGPR5192,Lot 305 P218309 ,Murray Road CHRISTMAS ISLAND,CHRISTMAS ISLAND,WA,6798,-10.42252679,105.6820154
AGPR5191,Lot 3037 P046731 ,Taman Sweetland Circuit CHRISTMAS ISLAND,CHRISTMAS ISLAND,WA,6798,-10.42361664,105.6817519
AGPR5190,Lot 292 P218309 ,Murray Road CHRISTMAS ISLAND,CHRISTMAS ISLAND,WA,6798,-10.42296956,105.6813546
AGPR5189,Lot 293 P218309 ,Poon Saan Road CHRISTMAS ISLAND,CHRISTMAS ISLAND,WA,6798,-10.42293706,105.6811768
AGPR5188,Lot 3025 P043317 ,Poon Saan Road CHRISTMAS ISLAND,CHRISTMAS ISLAND,WA,6798,-10.42365922,105.6791104
AGPR5187,Lot 3018 P043321 ,Seaview Drive CHRISTMAS ISLAND,CHRISTMAS ISLAND,WA,6798,-10.42116861,105.6770254
AGPR5186,Lot 451 P192428 ,Irvine Hill Road CHRISTMAS ISLAND,CHRISTMAS ISLAND,WA,6798,-10.44550994,105.6758209
AGPR5185,Lot 440 P219039 ,Murray Road CHRISTMAS ISLAND,CHRISTMAS ISLAND,WA,6798,-10.41943192,105.674363
AGPR5184,Lot 3007 P042349 ,Club Road CHRISTMAS ISLAND,CHRISTMAS ISLAND,WA,6798,-10.42648366,105.6741897
AGPR5183,Lot 3003 P042349 ,Club Road CHRISTMAS ISLAND,CHRISTMAS ISLAND,WA,6798,-10.42683742,105.6739809
AGPR5182,Lot 522 P194415 ,Irvine Hill Road CHRISTMAS ISLAND,CHRISTMAS ISLAND,WA,6798,-10.44089329,105.6738354
AGPR5181,Lot 307 P191122 ,Gaze Road CHRISTMAS ISLAND,CHRISTMAS ISLAND,WA,6798,-10.42517305,105.6735321
AGPR5180,Lot 458 P192462 ,Murray Road CHRISTMAS ISLAND,CHRISTMAS ISLAND,WA,6798,-10.42474453,105.6730604
AGPR5179,Lot 584 P030932 ,Jalan Patai Road CHRISTMAS ISLAND,CHRISTMAS ISLAND,WA,6798,-10.4274977,105.6724703
AGPR5178,Lot 3002 P041813 ,Murray Road CHRISTMAS ISLAND,CHRISTMAS ISLAND,WA,6798,-10.42423767,105.6721929
AGPR5177,Lot 638 P043304 ,Jalan Patai Road CHRISTMAS ISLAND,CHRISTMAS ISLAND,WA,6798,-10.42597531,105.6718061
AGPR5176,Lot 47 P218106 ,Gaze Road CHRISTMAS ISLAND,CHRISTMAS ISLAND,WA,6798,-10.42424677,105.6712347
AGPR5175,Lot 48 P218106 ,Gaze Road CHRISTMAS ISLAND,CHRISTMAS ISLAND,WA,6798,-10.42475717,105.6711278
AGPR5174,Lot 633 P040590 ,Jalan Patai Road CHRISTMAS ISLAND,CHRISTMAS ISLAND,WA,6798,-10.4285708,105.6709644
AGPR5173,Lot 425 P192117 ,Murray Road CHRISTMAS ISLAND,CHRISTMAS ISLAND,WA,6798,-10.43222646,105.670169
AGPR5172,Lot 632 P040590 ,Jalan Patai Road CHRISTMAS ISLAND,CHRISTMAS ISLAND,WA,6798,-10.42970384,105.6699475
AGPR5171,Lot 3005 P042337 ,Murray Road CHRISTMAS ISLAND,CHRISTMAS ISLAND,WA,6798,-10.43243211,105.669479
AGPR5170,Lot 631 P040590 ,Jalan Patai Road CHRISTMAS ISLAND,CHRISTMAS ISLAND,WA,6798,-10.42997404,105.6693972
AGPR5169,Lot 199 P218136 ,Murray Road CHRISTMAS ISLAND,CHRISTMAS ISLAND,WA,6798,-10.43291124,105.6687943
AGPR5168,Lot 630 P040590 ,Jalan Patai Road CHRISTMAS ISLAND,CHRISTMAS ISLAND,WA,6798,-10.43018231,105.6687347
AGPR5167,Lot 629 P040590 ,Jalan Patai Road CHRISTMAS ISLAND,CHRISTMAS ISLAND,WA,6798,-10.43020933,105.6684958
AGPR5166,Lot 500 P063606 ,Murray Road CHRISTMAS ISLAND,CHRISTMAS ISLAND,WA,6798,-10.44140676,105.6682363
AGPR5165,Lot 415 P192160 ,Murray Road CHRISTMAS ISLAND,CHRISTMAS ISLAND,WA,6798,-10.43647499,105.6676627
AGPR5164,Lot 480 P219672 ,Jin Pantai Road CHRISTMAS ISLAND,CHRISTMAS ISLAND,WA,6798,-10.4298793,105.6665799
AGPR5163,Lot 622 P043303 ,Murray Road CHRISTMAS ISLAND,CHRISTMAS ISLAND,WA,6798,-10.44168104,105.6664362
AGPR5162,Lot 3047 P046733 ,Jalan Patai Road CHRISTMAS ISLAND,CHRISTMAS ISLAND,WA,6798,-10.43218946,105.6658832
AGPR5161,Lot 428 P219041 ,Jalan Patai Road CHRISTMAS ISLAND,CHRISTMAS ISLAND,WA,6798,-10.42815014,105.6646703
AGPR5160,Lot 427 P219041 ,Jalan Patai Road CHRISTMAS ISLAND,CHRISTMAS ISLAND,WA,6798,-10.42855541,105.6642449
AGPR5159,Lot 635 P040834 ,Jalan Patai Road CHRISTMAS ISLAND,CHRISTMAS ISLAND,WA,6798,-10.43285331,105.6628576
AGPR5158,Lot 476 P219656 ,Jalan Patai Road CHRISTMAS ISLAND,CHRISTMAS ISLAND,WA,6798,-10.43221646,105.6626729
AGPR5157,Lot 475 P219656 ,Jalan Patai Road CHRISTMAS ISLAND,CHRISTMAS ISLAND,WA,6798,-10.43172997,105.6626645
AGPR5156,Lot 479 P219656 ,Jalan Patai Road CHRISTMAS ISLAND,CHRISTMAS ISLAND,WA,6798,-10.43132033,105.6625939
AGPR5155,Lot 474 P219656 ,Jalan Patai Road CHRISTMAS ISLAND,CHRISTMAS ISLAND,WA,6798,-10.43240467,105.6622083
AGPR5154,Lot 587 P037951 ,North Road CHRISTMAS ISLAND,CHRISTMAS ISLAND,WA,6798,-10.47854728,105.6298906
AGPR5153,Lot 586 P037951 ,North Road CHRISTMAS ISLAND,CHRISTMAS ISLAND,WA,6798,-10.47769718,105.6291899
AGPR5152,Lot 3066 P050962 ,Great Eastern Highway CHRISTMAS ISLAND,CHRISTMAS ISLAND,WA,6798,-10.46956718,105.5734109
AGPR5119,Lot 1 of Plan TP850261Q,453 Gaffney Street PASCOE VALE,PASCOE VALE,VIC,3044,-37.73031859,144.9265386
AGPR5087,Lot 1 of Plan TP830952Y,223 Lower Road MOORABBIN AIRPORT,MOORABBIN AIRPORT,VIC,3194,-37.98135002,145.0934133
AGPR5066,Plan PC354871E,43252 Brisbane Street STRATHMORE,STRATHMORE,VIC,3041,-37.72993124,144.90091
AGPR5057,Lot 1 of Plan TP320400L,Western Avenue MELBOURNE AIRPORT,MELBOURNE AIRPORT,VIC,3045,-37.67310919,144.8577417
AGPR5051,Volume 225834 Folio 1,311 Evandale Road WESTERN JUNCTION,WESTERN JUNCTION,TAS,7212,-41.54596,147.2053
AGPR5043,Volume 6141 Folio 699,Bennett Road MAWSON LAKES,MAWSON LAKES,SA,5095,-34.80474041,138.6256863
AGPR504,Lot 13  DP1042814,20R Budjan Street RANDWICK,RANDWICK,NSW,2031,-33.93062996,151.2439813
AGPR5036,Volume 6137 Folio 602,Sir Donald Bradman Drive ADELAIDE AIRPORT,ADELAIDE AIRPORT,SA,5950,-34.94766866,138.5316177
AGPR503,Lot 1  DP132344,Cowper Wharf Road POTTS POINT,POTTS POINT,NSW,2011,-33.86734959,151.2259764
AGPR5027,Lot 21 on RP748033,John Melton Black Drive GARBUTT,GARBUTT,QLD,4814,-19.25057589,146.7737349
AGPR5026,Lot 2 on RP748023,John Melton Black Drive GARBUTT,GARBUTT,QLD,4814,-19.25333935,146.7761774
AGPR5025,Lot 7 on RP802404,John Melton Black Drive GARBUTT,GARBUTT,QLD,4814,-19.25483464,146.7756083
AGPR5023,Lot 2 on RP844116,550 Main Myrtletown Road BRISBANE AIRPORT,BRISBANE AIRPORT,QLD,4008,-27.37314913,153.1229871
AGPR5016,Lot 3 on RP724915,550 Barkly Highway KALKADOON,KALKADOON,QLD,4825,-20.66952449,139.4799295
AGPR5015,Lot 28 on RP734222,550 Barkly Highway KALKADOON,KALKADOON,QLD,4825,-20.6825372,139.4920756
AGPR5014,Lot 1 on RP724915,550 Barkly Highway KALKADOON,KALKADOON,QLD,4825,-20.66509399,139.4866001
AGPR5013,Lot 14 on RP720448,550 Barkly Highway KALKADOON,KALKADOON,QLD,4825,-20.67344839,139.4918702
AGPR5006,Lot 2 on SP200283,480 Beatty Road ACACIA RIDGE,ACACIA RIDGE,QLD,4110,-27.57004366,153.0062177
AGPR5000,Section 00117 Hundred of Bagot plan B  000682,165 Deloraine Road MICKET CREEK,MICKET CREEK,NT,822,-12.40589445,130.9628572
AGPR50,NT Portion  02854 plan S  89/156,7430 Arnhem Highway MOUNT BUNDEY,MOUNT BUNDEY,NT,822,-13.00672047,131.9173993
AGPR4999,Portion 02270 Hundred of Bagot plan S  80/045,160 Deloraine Road SHOAL BAY,SHOAL BAY,NT,830,-12.37589305,130.9797863
AGPR4998,Section 04456 Hundred of Bagot plan LTO93/073,100 Deloraine Road SHOAL BAY,SHOAL BAY,NT,830,-12.41440395,130.9693775
AGPR499,Lot 4  DP238092,2042-2550 The Northern Road ORCHARD HILLS,ORCHARD HILLS,NSW,2748,-33.8117921,150.6948922
AGPR4953,Lot 683  DP842811,3 Avro Street BANKSTOWN AERODROME,BANKSTOWN AERODROME,NSW,2200,-33.92508507,150.99775
AGPR49,Volume CUFT 22 Folio 115 Section 1538 Hundred of  Guy Plan  A 000692 ,115 ANZAC Parade MIDDLE POINT,MIDDLE POINT,NT,822,-12.60715151,131.2887637
AGPR4894,Lot 1  DP582467,Pacific Motorway TWEED HEADS WEST,TWEED HEADS WEST,NSW,2485,-28.17041963,153.5165907
AGPR489,Lot 1  DP221326,2 Wade Street INVERELL,INVERELL,NSW,2360,-29.76856807,151.1059485
AGPR4881,Lot 1  DP809051,General Holmes Drive MASCOT,MASCOT,NSW,2020,-33.93059866,151.1847782
AGPR4877,Lot 1  DP129674,Elizabeth Drive BADGERYS CREEK,BADGERYS CREEK,NSW,2555,-33.87352171,150.7506403
AGPR4869,Lot 1  DP107987,Spring Street ARNCLIFFE,ARNCLIFFE,NSW,2205,-33.94620654,151.1533695
AGPR480,Lot 1  DP863172,172 Hudson Parade CLAREVILLE,CLAREVILLE,NSW,2107,-33.63564596,151.3063349
AGPR48,Volume CUFT 735 Folio 120 Section 1750 Hundred of  Guy Plan  S2009/170 ,ANZAC Parade MIDDLE POINT,MIDDLE POINT,NT,822,-12.593796,131.3055118
AGPR4792,Lot 15  DP229293,221 Greendale Road GREENDALE,GREENDALE,NSW,2745,-33.91498122,150.6747041
AGPR477,Lot 1  DP386711,17 Muldoon Street TAREE,TAREE,NSW,2430,-31.89884421,152.4635744
AGPR4745,Block 113 District Kowen,Kings Highway KOWEN,KOWEN,ACT,2620,-35.32819,149.3828
AGPR4737,Lot 669 P055175 ,9 Juniper Court YAKAMIA,YAKAMIA,WA,6330,-34.99642318,117.8833124
AGPR4735,Lot 2 D082673 ,15 Dempster Street PORT HEDLAND,PORT HEDLAND,WA,6721,-20.30046979,118.6335465
AGPR4734,Lot 1316 P214560 ,1 Goode Street PORT HEDLAND,PORT HEDLAND,WA,6721,-20.30089458,118.6388365
AGPR4733,Lot 456 P004683 ,24 Fricker Road PERTH AIRPORT,PERTH AIRPORT,WA,6105,-31.94725911,115.9721317
AGPR4731,Lot 3 of Plan TP844276L,53 Hampstead Road MAIDSTONE,MAIDSTONE,VIC,3012,-37.77709957,144.8775673
AGPR4730,Lot 2 of Plan TP844276L,53 Hampstead Road MAIDSTONE,MAIDSTONE,VIC,3012,-37.7767676,144.8762654
AGPR4729,Lot 1 of Plan TP844276L,53 Hampstead Road MAIDSTONE,MAIDSTONE,VIC,3012,-37.77702084,144.8758932
AGPR4728,Volume 6014 Folio 416,55-65 Garland Avenue KILBURN,KILBURN,SA,5084,-34.85668801,138.5800032
AGPR4727,Lot 3 on SP145563,Airport Road HORN ISLAND,HORN ISLAND,QLD,4875,-10.59736436,142.2883745
AGPR4726,Lot 2 on SP153011,80 Sugarmill Road PINKENBA,PINKENBA,QLD,4008,-27.42443287,153.1010579
AGPR4724,Lot 2 on RP145425,50 Sugarmill Road PINKENBA,PINKENBA,QLD,4008,-27.42708929,153.1013041
AGPR4723,Lot 1 on SP226138,100A Sugarmill Road PINKENBA,PINKENBA,QLD,4008,-27.42378172,153.0980275
AGPR4722,Lot 2 on SP226138,100 Sugarmill Road PINKENBA,PINKENBA,QLD,4008,-27.42249697,153.1031363
AGPR4719,Lot 102  DP1041971,15 Birmingham Avenue VILLAWOOD,VILLAWOOD,NSW,2163,-33.87455554,150.9890541
AGPR4718,Lot 100  DP1041971,100 Miller Road VILLAWOOD,VILLAWOOD,NSW,2163,-33.87687126,150.9919811
AGPR4706,Lot 16 on RP737043,33 Chester Street THURSDAY ISLAND,THURSDAY ISLAND,QLD,4875,-10.58146132,142.2152315
AGPR4705,Block 343 District Paddys River,Paddys River Road PADDY'S RIVER,PADDY'S RIVER,ACT,2620,-35.39938,148.96809
AGPR4704,Block 254 District Paddys River,451 Discovery Drive PADDY'S RIVER,PADDY'S RIVER,ACT,2620,-35.39938,148.97928
AGPR4703,Block 198 District Paddys River,PADDY'S RIVER,PADDY'S RIVER,ACT,2620,-35.39228,148.98618
AGPR4702,Block 105 District Paddys River,Paddys River Road PADDY'S RIVER,PADDY'S RIVER,ACT,2620,-35.37901,148.95213
AGPR4701,Block 48 District Hall,Wallaroo Road HALL,HALL,ACT,2618,-35.16761,149.05227
AGPR47,Volume CUFT 228 Folio 69 Section 3437 Hundred of  Bagot Plan  S 90/251 ,95 Amy Johnson Avenue BERRIMAH,BERRIMAH,NT,828,-12.41232208,130.9102394
AGPR4698,Block 5 Section 1 Division Barton,Brisbane Avenue BARTON,BARTON,ACT,2600,-35.307833,149.130758
AGPR4697,Block 4 Section 28 Division City,5 Childers Street CANBERRA CITY,CANBERRA CITY,ACT,2600,-35.27916,149.12305
AGPR4696,Block 3 Section 84 Division Russell,Kelliher Drive RUSSELL,RUSSELL,ACT,2600,-35.30173,149.15292
AGPR4695,Block 3 Section 80 Division Russell,Russell Drive RUSSELL,RUSSELL,ACT,2600,-35.29718,149.14948
AGPR4693,Block 2 Section 89 Division Russell,1 Kelliher Drive RUSSELL,RUSSELL,ACT,2600,-35.30113,149.152
AGPR4692,Block 2 Section 84 Division Russell,Kelliher Drive RUSSELL,RUSSELL,ACT,2600,-35.29956,149.15366
AGPR4691,Block 2 Section 80 Division Russell,Russell Drive RUSSELL,RUSSELL,ACT,2600,-35.29512,149.14702
AGPR4689,Block 1 Section 65 Division of Deakin District of Canberra Central ,60-66 Denison Street DEAKIN,DEAKIN,ACT,2600,-35.3185,149.09296
AGPR4688,Block 1 Section 35 Division Parkes,10 Parkes Place East PARKES,PARKES,ACT,2600,-35.30212,149.13422
AGPR4687,Block 1 Section 33 Division Parkes,1 Langdon Crescent PARKES,PARKES,ACT,2600,-35.29836,149.12849
AGPR4684,Block 1 Section 85 Division Russell,Russell Drive RUSSELL,RUSSELL,ACT,2600,-35.30131,149.15048
AGPR4683,Lot 2 D075187 ,150 Terrace Road PERTH,PERTH,WA,6000,-31.95863126,115.8643579
AGPR468,Lot 1  DP776273,147 The Entrance Road ERINA,ERINA,NSW,2250,-33.43790181,151.3775203
AGPR4678,CA B32 Township of Wodonga ,Lincoln Causeway GATEWAY ISLAND,GATEWAY ISLAND,VIC,3691,-36.09190791,146.8832179
AGPR4677,CA B32A Township of Wodonga ,Lincoln Causeway GATEWAY ISLAND,GATEWAY ISLAND,VIC,3691,-36.09527227,146.8882134
AGPR4676,CA B34 Township of Wodonga ,Lincoln Causeway GATEWAY ISLAND,GATEWAY ISLAND,VIC,3691,-36.08927169,146.8830681
AGPR4675,CA B33 Township of Wodonga ,Lincoln Causeway GATEWAY ISLAND,GATEWAY ISLAND,VIC,3691,-36.0894059,146.8860558
AGPR4674,Lot 8 of Plan TP821934C,Lincoln Causeway GATEWAY ISLAND,GATEWAY ISLAND,VIC,3691,-36.09170685,146.8856129
AGPR4673,Lot 7 of Plan TP821934C,Lincoln Causeway GATEWAY ISLAND,GATEWAY ISLAND,VIC,3691,-36.0924869,146.8897794
AGPR4672,Lot 6 of Plan TP821934C,Lincoln Causeway GATEWAY ISLAND,GATEWAY ISLAND,VIC,3691,-36.09001615,146.8888055
AGPR4671,Lot 2 of Plan TP821934C,Lincoln Causeway GATEWAY ISLAND,GATEWAY ISLAND,VIC,3691,-36.09013017,146.8912401
AGPR4670,Lot 1 of Plan TP821934C,Lincoln Causeway GATEWAY ISLAND,GATEWAY ISLAND,VIC,3691,-36.09008177,146.8903259
AGPR4669,CA B31A Township of Wodonga ,Lincoln Causeway GATEWAY ISLAND,GATEWAY ISLAND,VIC,3691,-36.09207051,146.8866133
AGPR4668,Lot 1 of Plan PS726955M,Lincoln Causeway GATEWAY ISLAND,GATEWAY ISLAND,VIC,3691,-36.09586083,146.8985853
AGPR4667,Lot 1 of Plan TP132531S,Lincoln Causeway GATEWAY ISLAND,GATEWAY ISLAND,VIC,3691,-36.09799612,146.896557
AGPR4666,Lot 1 of Plan TP847843K,Lincoln Causeway GATEWAY ISLAND,GATEWAY ISLAND,VIC,3691,-36.10104228,146.8956251
AGPR4665,Lot 1 of Plan TP596455Q,Lincoln Causeway GATEWAY ISLAND,GATEWAY ISLAND,VIC,3691,-36.10023217,146.8958058
AGPR4664,CA 2012 Township of Wodonga ,Lincoln Causeway GATEWAY ISLAND,GATEWAY ISLAND,VIC,3691,-36.09289826,146.889287
AGPR4663,Lot RES1 of Plan PS726955M,Lemke Road GATEWAY ISLAND,GATEWAY ISLAND,VIC,3691,-36.09694025,146.9001979
AGPR466,Lot 21  DP17975,143 Blacktown Road BLACKTOWN,BLACKTOWN,NSW,2148,-33.78379069,150.921798
AGPR4658,CA 2 Section 5 City of Melbourne Parish of Melbourne North,4 Treasury Place EAST MELBOURNE,EAST MELBOURNE,VIC,3002,-37.8123272,144.9770108
AGPR4657,CA 1 Section 5 City of Melbourne Parish of Melbourne North,4 Treasury Place EAST MELBOURNE,EAST MELBOURNE,VIC,3002,-37.81257692,144.9772183
AGPR4646,Lot 1 of Plan TP004810E,305 William Street MELBOURNE,MELBOURNE,VIC,3000,-37.81294325,144.9559211
AGPR4645,Plan CP155084,289 William Street MELBOURNE,MELBOURNE,VIC,3000,-37.81206903,144.9562797
AGPR4642,CA B8B Township of Wodonga ,136 Lemke Road GATEWAY ISLAND,GATEWAY ISLAND,VIC,3691,-36.087765,146.8926836
AGPR4641,Lot 9 of Plan TP821934C,136 Lemke Road GATEWAY ISLAND,GATEWAY ISLAND,VIC,3691,-36.08709239,146.8975865
AGPR4640,Lot 5 of Plan TP821934C,136 Lemke Road GATEWAY ISLAND,GATEWAY ISLAND,VIC,3691,-36.08771504,146.8946576
AGPR4639,Lot 4 of Plan TP821934C,136 Lemke Road GATEWAY ISLAND,GATEWAY ISLAND,VIC,3691,-36.08975151,146.8955327
AGPR4638,Lot 3 of Plan TP821934C,136 Lemke Road GATEWAY ISLAND,GATEWAY ISLAND,VIC,3691,-36.0899973,146.8930726
AGPR4637,Lot 1 of Plan TP821981S,136 Lemke Road GATEWAY ISLAND,GATEWAY ISLAND,VIC,3691,-36.08781948,146.8970831
AGPR4636,Lot 1 of Plan TP666517G,136 Lemke Road GATEWAY ISLAND,GATEWAY ISLAND,VIC,3691,-36.08709239,146.8975865
AGPR4635,CA B8A Township of Wodonga ,136 Lemke Road GATEWAY ISLAND,GATEWAY ISLAND,VIC,3691,-36.08665133,146.8953909
AGPR4634,CA 2011 Township of Wodonga,136 Lemke Road GATEWAY ISLAND,GATEWAY ISLAND,VIC,3691,-36.08852701,146.8940478
AGPR4633,Lot 2 of Plan LP202576J,135 Donnybrook Road MICKLEHAM,MICKLEHAM,VIC,3064,-37.54266207,144.9320788
AGPR4632,CA 7 Section 13 Parish of Truganina,100 Sayers Road LAVERTON NORTH,LAVERTON NORTH,VIC,3026,-37.85397511,144.7484444
AGPR4631,CA B38 Township of Wodonga,Lincoln Causeway GATEWAY ISLAND,GATEWAY ISLAND,VIC,3691,-36.09905576,146.8960333
AGPR463,Lot 1  DP1055491,140 Hawthorne Parade HABERFIELD,HABERFIELD,NSW,2045,-33.88200856,151.1431809
AGPR4628,Volume 249737 Folio 1,39-41 Davey Street HOBART,HOBART,TAS,7000,-42.88517,147.32817
AGPR4627,Volume 5864 Folio 59,3 Angas Street ADELAIDE,ADELAIDE,SA,5000,-34.930411,138.6012983
AGPR4626,Lot 90 on NR2097,LITTLE FITZROY ISLAND,LITTLE FITZROY ISLAND,QLD,4870,-16.9226383,146.0064696
AGPR4624,Lot 53 on RP225677,6 Ewing Street WOODRIDGE,WOODRIDGE,QLD,4114,-27.63934918,153.1072896
AGPR4623,Lot 9 on RP745644,38 Victoria Parade THURSDAY ISLAND,THURSDAY ISLAND,QLD,4875,-10.5845117,142.2168614
AGPR4622,Lot 10 on RP745644,38 Victoria Parade THURSDAY ISLAND,THURSDAY ISLAND,QLD,4875,-10.58452637,142.2170447
AGPR4621,Lot 10 on RP813311,116 North Quay BRISBANE CITY,BRISBANE CITY,QLD,4000,-27.46900044,153.0200434
AGPR4619,Section 00032 Hundred of Bray plan OP 001510,7411 Cox Peninsula Road COX PENINSULA,COX PENINSULA,NT,822,-12.47344276,130.7354408
AGPR4616,Lot 7302  1148086,Poppet Road WAMBOIN,WAMBOIN,NSW,2620,-35.270517,149.274334
AGPR4613,Lot 1  DP233510,SNAPPER ISLAND,SNAPPER ISLAND,NSW,2077,-33.852211,151.166904
AGPR4610,Lot 302  DP1178568,Fishermans Road MALABAR,MALABAR,NSW,2036,-33.96407445,151.2574784
AGPR4609,Lot 2  DP874120,22 O'Connell Street PARRAMATTA,PARRAMATTA,NSW,2150,-33.81329745,151.0006954
AGPR4608,Lot 120  DP751835,Fairlight Road URIARRA,URIARRA,NSW,2611,-35.2335784,148.9252126
AGPR4607,Lot 4  DP126547,Fairlight Road URIARRA,URIARRA,NSW,2611,-35.24260884,148.9202486
AGPR4606,Lot 31  DP751835,Fairlight Road URIARRA,URIARRA,NSW,2611,-35.23313411,148.9226847
AGPR4605,Lot 3  DP126547,Fairlight Road URIARRA,URIARRA,NSW,2611,-35.24047761,148.9219914
AGPR4604,Lot 23  DP659845,Fairlight Road URIARRA,URIARRA,NSW,2611,-35.22526704,148.9500111
AGPR4603,Lot 2  DP126547,Fairlight Road URIARRA,URIARRA,NSW,2611,-35.2320481,148.934086
AGPR4602,Lot 1  DP126547,Fairlight Road URIARRA,URIARRA,NSW,2611,-35.23324538,148.9291665
AGPR4599,Lot 301  DP1178568,271R Franklin Street MALABAR,MALABAR,NSW,2036,-33.961829,151.259185
AGPR4598,Lot 8  DP539918,97-99 Goulburn Street HAYMARKET,HAYMARKET,NSW,2000,-33.8784601,151.2083915
AGPR4597,Lot 6  DP233275,97-99 Goulburn Street HAYMARKET,HAYMARKET,NSW,2000,-33.87843174,151.2082112
AGPR4596,Lot 50 Plan DP749589 ,97-99 Goulburn Street HAYMARKET,HAYMARKET,NSW,2000,-33.87858265,151.2082067
AGPR4595,Lot 1  85215,87 Central Reserve Road ETTAMOGAH,ETTAMOGAH,NSW,2640,-36.011169,146.965134
AGPR4591,Lot 1  DP397360,64 Rosamond Street HORNSBY,HORNSBY,NSW,2077,-33.69061135,151.0918161
AGPR4590,Lot 42 Plan DP1158392 ,622 Chant Street LAVINGTON,LAVINGTON,NSW,2641,-36.02881884,146.9227368
AGPR4588,Lot 44 Plan DP1158392 ,566 Norris Street LAVINGTON,LAVINGTON,NSW,2641,-36.03191612,146.9230815
AGPR4582,Lot 45 Plan DP1158392 ,19 Newman Nook LAVINGTON,LAVINGTON,NSW,2641,-36.03285007,146.9232853
AGPR4581,Lot 2 Plan DP605076 ,1839 Little Forest Road LUCAS HEIGHTS,LUCAS HEIGHTS,NSW,2234,-34.03488762,150.975248
AGPR4576,Lot 2 Plan DP800615 ,1 Ben Boyd Road NEUTRAL BAY,NEUTRAL BAY,NSW,2089,-33.84118874,151.2176973
AGPR4575,Block 2004 District Jerrabomberra,Woods Lane SYMONSTON,SYMONSTON,ACT,2619,-35.3494,149.20259
AGPR4574,Block 1212 Section   Division ,2 Kirkpatrick Street WESTON CREEK,WESTON CREEK,ACT,2611,-35.31957,149.05864
AGPR4573,Block 695 Section 0 Division Majura,Majura Road MAJURA,MAJURA,ACT,2609,-35.28301,149.17475
AGPR4571,Block 659 Section 0 Division Majura,35 Laverton Avenue MAJURA,MAJURA,ACT,2609,-35.29886,149.20733
AGPR4570,Block 642 Section 0 Division Majura,Majura Road MAJURA,MAJURA,ACT,2609,-35.28145,149.19574
AGPR4569,Block 637 Section 0 Division Majura,Majura Road MAJURA,MAJURA,ACT,2609,-35.28314,149.19871
AGPR4568,Block 636 Section 0 Division Majura,Majura Road MAJURA,MAJURA,ACT,2609,-35.27741,149.21401
AGPR4567,Block 612 Section 0 Division Majura,Majura Road MAJURA,MAJURA,ACT,2609,-35.23822,149.20194
AGPR4566,Block 608 Section 0 Division Majura,Majura Road MAJURA,MAJURA,ACT,2609,-35.32104,149.21119
AGPR4564,Block 592 Section 0,Majura Road MAJURA,MAJURA,ACT,2609,-35.31814,149.20392
AGPR4563,Block 591 Section 0 Division Majura,Majura Road MAJURA,MAJURA,ACT,2609,-35.31636,149.20126
AGPR4562,Block 590 Section 0 Division Majura,Majura Road MAJURA,MAJURA,ACT,2609,-35.31593,149.19964
AGPR4560,Block 575 Section 0 Division Majura,Majura Road MAJURA,MAJURA,ACT,2609,-35.32118,149.21129
AGPR456,Lot 1  DP89843,13 Rawson Avenue LOFTUS,LOFTUS,NSW,2232,-34.03801391,151.0535223
AGPR4559,Block 564 Section 0 Division Majura,Majura Road MAJURA,MAJURA,ACT,2609,-35.28544,149.17668
AGPR4558,Block 558 Section 0 Division Majura,Majura Road MAJURA,MAJURA,ACT,2609,-35.32104,149.21097
AGPR4557,Block 550 Section 0 Division Majura,Majura Road MAJURA,MAJURA,ACT,2609,-35.28969,149.17136
AGPR4555,Block 548 Section 0 Division Majura,Majura Road MAJURA,MAJURA,ACT,2609,-35.27122,149.25855
AGPR4554,Block 539 Section 0 Division Majura,Majura Road MAJURA,MAJURA,ACT,2609,-35.32111,149.21126
AGPR4553,Block 530 Section 0 Division Majura,Majura Road MAJURA,MAJURA,ACT,2609,-35.31931,149.19827
AGPR4552,Block 529 Section 0 Division Majura,Majura Road MAJURA,MAJURA,ACT,2609,-35.31907,149.20051
AGPR4551,Block 528 Section 0 Division Majura,Majura Road MAJURA,MAJURA,ACT,2609,-35.31755,149.19893
AGPR4549,Block 514 Section 0 Division Majura,Majura Road MAJURA,MAJURA,ACT,2609,-35.32175,149.22014
AGPR4548,Block 508 Section 0 Division Majura,Majura Road MAJURA,MAJURA,ACT,2609,-35.29128,149.17009
AGPR4546,Block 492 Section 0 Division Majura,Majura Road MAJURA,MAJURA,ACT,2609,-35.23775,149.19957
AGPR4545,Block 192 Section 0 Division Majura,Majura Road MAJURA,MAJURA,ACT,2609,-35.30518,149.23918
AGPR4544,Block 191 Section 0 Division Majura,Majura Road MAJURA,MAJURA,ACT,2609,-35.2806,149.24525
AGPR4543,Block 189 Section 0 Division Majura,Majura Road MAJURA,MAJURA,ACT,2609,-35.286,149.22307
AGPR4542,Block 151 Section 0 Division Majura,Majura Road MAJURA,MAJURA,ACT,2609,-35.2354,149.20794
AGPR4541,Block 150 Section 0 Division Majura,Majura Road MAJURA,MAJURA,ACT,2609,-35.24265,149.21229
AGPR4540,Block 148 Section 0 Division Majura,Majura Road MAJURA,MAJURA,ACT,2609,-35.25038,149.21044
AGPR4536,Block 92 Section 0 Division Majura,Majura Road MAJURA,MAJURA,ACT,2609,-35.3062,149.2166
AGPR4535,Block 65 Section 0 Division Majura,Majura Road MAJURA,MAJURA,ACT,2609,-35.2866,149.23154
AGPR4534,Block 63 Section 0 Division Majura,Majura Road MAJURA,MAJURA,ACT,2609,-35.24492,149.23209
AGPR4533,Block 53 Section 0 Division Majura,Majura Road MAJURA,MAJURA,ACT,2609,-35.26078,149.22372
AGPR4532,Block 52 Section 0 Division Majura,701 Majura Road MAJURA,MAJURA,ACT,2609,-35.27081,149.19787
AGPR4531,Block 42 Section 2 Division Pialligo,360 Fairbairn Avenue PIALLIGO,PIALLIGO,ACT,2609,-35.30098,149.17964
AGPR4530,Block 22 Section 24 Division Fyshwick,84-86 Maryborough Street FYSHWICK,FYSHWICK,ACT,2609,-35.3247,149.17417
AGPR4529,Block 21 Section 87 Division Russell,Vivian Bullwinkel Way RUSSELL,RUSSELL,ACT,2600,-35.29902,149.15258
AGPR4527,Block 20 Section 87 Division Russell,Vivian Bullwinkel Way RUSSELL,RUSSELL,ACT,2600,-35.29903,149.15186
AGPR4526,Block 19 Section 87 Division Russell,Russell Drive RUSSELL,RUSSELL,ACT,2600,-35.29849,149.15168
AGPR4525,Block 18 Section 87 Division Russell,Sellheim Avenue RUSSELL,RUSSELL,ACT,2600,-35.29832,149.15231
AGPR4524,Block 17 Section 87 Division Russell,17 Sir Thomas Blamey Square RUSSELL,RUSSELL,ACT,2600,-35.29793,149.15261
AGPR4523,Block 16 Section 19 Division Yarralumla,16 Alexandrina Drive YARRALUMLA,YARRALUMLA,ACT,2600,-35.29878,149.09948
AGPR4521,Block 15 Section 87 Division Russell,Sir Thomas Blamey Square RUSSELL,RUSSELL,ACT,2600,-35.29658,149.15134
AGPR4520,Block 12 Section 87 Division Russell,Russell Drive RUSSELL,RUSSELL,ACT,2600,-35.29701,149.15089
AGPR452,Lot 1  DP587744,129 Brushabers Road JENNINGS,JENNINGS,NSW,4383,-28.94101504,151.9597246
AGPR4519,Block 7 Section 19 Division Yarralumla,4 Alexandrina Place YARRALUMLA,YARRALUMLA,ACT,2600,-35.30013,149.09986
AGPR4517,Block 5 Section 119 Division Campbell,Finlay Road CAMPBELL,CAMPBELL,ACT,2612,-35.29783,149.1627
AGPR4516,Block 4 Section 30 Division Pialligo,Pialligo Avenue PIALLIGO,PIALLIGO,ACT,2609,-35.31714,149.18836
AGPR4515,Block 3 Section 117 Division Campbell,Constitution Avenue CAMPBELL,CAMPBELL,ACT,2612,-35.293094,149.14829
AGPR4514,Block 3 Section 45 Division Fyshwick,Tennant Street FYSHWICK,FYSHWICK,ACT,2609,-35.329925,149.189229
AGPR4513,Block 2 Section 30 Division Pialligo,Pialligo Avenue PIALLIGO,PIALLIGO,ACT,2609,-35.31829,149.18765
AGPR4509,Block 1 Section 36 Division Pialligo,Majura Road PIALLIGO,PIALLIGO,ACT,2609,-35.32725,149.20722
AGPR4508,Block 1 Section 34 Division Pialligo,Majura Road PIALLIGO,PIALLIGO,ACT,2609,-35.32463,149.20624
AGPR4507,Block 1 Section 27 Division Pialligo,Majura Road PIALLIGO,PIALLIGO,ACT,2609,-35.32249,149.19938
AGPR4506,Block 1 Section 21 Division Pialligo,Majura Road PIALLIGO,PIALLIGO,ACT,2609,-35.32991,149.20616
AGPR4503,Block 1 Section 16 Division Pialligo,Majura Road PIALLIGO,PIALLIGO,ACT,2609,-35.28859,149.19121
AGPR4502,Block 1 Section 15 Division Pialligo,Majura Road PIALLIGO,PIALLIGO,ACT,2609,-35.28394,149.19337
AGPR4501,Block 1 Section 89 Division Russell,11 Kelliher Drive RUSSELL,RUSSELL,ACT,2600,-35.30007,149.15219
AGPR4500,Block 1 Section 88 Division Russell,51 Russell Drive RUSSELL,RUSSELL,ACT,2600,-35.29476,149.14851
AGPR45,Volume CUFT 186 Folio 36 Township of  Darwin Lot 5556 Plan  S 86/194 ,Allen Avenue LARRAKEYAH,LARRAKEYAH,NT,820,-12.46107088,130.8215235
AGPR4499,Block 1 Section 64 Division Campbell,Northcott Drive CAMPBELL,CAMPBELL,ACT,2612,-35.29194,149.16623
AGPR4493,Lot 8011 P210676 ,185 Duffy Road YEAL,YEAL,WA,6503,-31.4654272,115.8583315
AGPR4492,Lot 142 P215121 ,Great Northern Highway WILLARE,WILLARE,WA,6728,-17.58812606,123.8230876
AGPR4491,Lot 103 P215040 ,Great Northern Highway WILLARE,WILLARE,WA,6728,-17.62584438,123.7723991
AGPR4488,Lot 1309 P137260 ,Indian Ocean Drive WEDGE ISLAND,WEDGE ISLAND,WA,6044,-30.84762454,115.3231061
AGPR4485,Lot 37 P216981 ,37 Boonderoo Road TOM PRICE,TOM PRICE,WA,6751,-22.68935319,117.7851608
AGPR4479,Lot 99 Plan P045834,West Coast Highway SWANBOURNE,SWANBOURNE,WA,6010,-31.97309517,115.7608712
AGPR4474,Lot 5 P017223 ,Alfred Road SWANBOURNE,SWANBOURNE,WA,6010,-31.96111519,115.7628122
AGPR4472,Lot 11 D011671 ,Beavis Drive SOUTH GUILDFORD,SOUTH GUILDFORD,WA,6055,-31.66197692,116.5932818
AGPR4471,Lot 525 P168696 ,67 Wilson Street PORT HEDLAND,PORT HEDLAND,WA,6721,-20.31232586,118.5861246
AGPR4470,Lot 50 D095534 ,103 Brunswick Road PORT ALBANY,PORT ALBANY,WA,6330,-35.0305188,117.8935315
AGPR447,Lot 1  DP845636,10026 Federation Way MORUNDAH,MORUNDAH,NSW,2700,-35.1174416,146.9795842
AGPR4469,Lot 2196 P176417 ,Point Peron Road PERON,PERON,WA,6168,-32.27314174,115.6978741
AGPR4468,Lot 3055 Plan P189811,Point Peron Road PERON,PERON,WA,6168,-32.273102,115.698619
AGPR4465,Lot 1669 P216237 ,20 Laver Street NEWMAN,NEWMAN,WA,6753,-23.36918832,119.7337954
AGPR4461,Lot 57 P218428 ,Great Central Road LAVERTON,LAVERTON,WA,6440,-28.31382617,122.8361737
AGPR4460,Lot 1 D088206 ,18 Carpentaria Street KUNUNURRA,KUNUNURRA,WA,6743,-15.75874784,128.7463024
AGPR4459,Lot 15 P242219 ,KIMBOLTON,KIMBOLTON,WA,6728,-16.51941718,123.6566772
AGPR4458,Lot 13 D016599 ,25 Pemble Street KATANNING,KATANNING,WA,6317,-33.6886151,117.5466453
AGPR4455,Lot 10 D085340 ,3777 Mooligunn Road KARRATHA INDUSTRIAL ESTATE,KARRATHA INDUSTRIAL ESTATE,WA,6714,-20.76700148,116.8576183
AGPR4453,Lot 1 D049337 ,245 Stubbs Terrace KARRAKATTA,KARRAKATTA,WA,6010,-31.96278287,115.7952868
AGPR445,Lot 12  DP1042814,33-99 Bundock Street RANDWICK,RANDWICK,NSW,2031,-33.92931291,151.2409802
AGPR4449,Lot 1167 P222608 ,21 Cheetham Street KALGOORLIE,KALGOORLIE,WA,6430,-30.74953204,121.4768942
AGPR4448,Lot 3 Plan P010245,Bildjar Close GUILDFORD,GUILDFORD,WA,6055,-31.91445027,115.9895391
AGPR4447,Lot 1 Plan P010245,Talbot Road GUILDFORD,GUILDFORD,WA,6055,-31.91392579,115.9857178
AGPR4445,Lot 28 P222469 ,199 Lester Avenue GERALDTON,GERALDTON,WA,6530,-28.77578497,114.6097051
AGPR4441,Lot 2956 P217159 ,Point Peron Road GARDEN ISLAND,GARDEN ISLAND,WA,6168,-32.27188822,115.6980015
AGPR4439,Lot 601 P065368 ,6 Burt Street FREMANTLE,FREMANTLE,WA,6160,-32.04475589,115.7547066
AGPR4438,Lot 1 Plan D065920,6 & 2 Tuckfield Street FREMANTLE,FREMANTLE,WA,6160,-32.04408387,115.7550041
AGPR4428,Lot 39 P208441 ,Minilya-Exmouth Road EXMOUTH GULF,EXMOUTH GULF,WA,6707,-22.24966851,114.0793836
AGPR4409,Lot 8355 P009199 ,Riverside Road EAST FREMANTLE,EAST FREMANTLE,WA,6158,-32.02734442,115.7638409
AGPR4399,Lot 10 P016510 ,Young Road EAST CHAPMAN,EAST CHAPMAN,WA,6532,-28.69413453,114.841072
AGPR4398,Lot 57 P222240 ,441 Robinson Street EAST CARNARVON,EAST CARNARVON,WA,6701,-24.86577343,113.6864362
AGPR4397,Lot 655 P174895 ,55 Knowsley Street East DERBY,DERBY,WA,6728,-17.31040327,123.6492068
AGPR4396,Lot 70 D079287 ,9 Wilson Road DAVENPORT,DAVENPORT,WA,6230,-33.35402267,115.6676217
AGPR4395,COCKBL  00696,COCKBURN SOUND,COCKBURN SOUND,WA,6168,-32.16327913,115.6612029
AGPR4394,Lot 148 Plan P215203,Cinders Road BURRUP,BURRUP,WA,6714,-20.665075,116.761697
AGPR4390,Lot 0  D011621 ,Great Eastern Highway BURLONG,BURLONG,WA,6401,-31.66004995,116.6203937
AGPR4387,Lot 28244 P210247 ,Great Eastern Highway BURLONG,BURLONG,WA,6401,-31.66724243,116.628867
AGPR4383,SWAN L  00091,Turner Road Bullsbrook,Bullsbrook,WA,6084,-31.67060721,116.0069458
AGPR437,Lot 422  DP792914,116 Moffats Road SWAN BAY,SWAN BAY,NSW,2324,-32.71238219,151.9336244
AGPR436,Lot 2  DP511354,116 Military Road EAST LISMORE,EAST LISMORE,NSW,2480,-28.8230804,153.2999414
AGPR435,Lot 307  DP1164237,116 Darling Street DUBBO,DUBBO,NSW,2830,-32.24929214,148.6062905
AGPR43,Volume NTFT 7 Folio 92 Township of Townsite of Southport Lot 93 Plan TBK01/013 ,13 Aldridge Street SOUTHPORT,SOUTHPORT,NT,822,-12.72539223,130.9476693
AGPR4289,Lot 28184 P209646 ,Bindoon-Dewars Pool Road BINDOON TRAINING AREA,BINDOON TRAINING AREA,WA,6502,-31.27293179,116.294271
AGPR4286,Lot 2705 P217704 ,2 Mavis Road BILINGURR,BILINGURR,WA,6725,-17.92668865,122.2397531
AGPR4284,Lot 56 P218427 ,Erlistoun Road BANDYA,BANDYA,WA,6440,-28.31895195,122.0148543
AGPR4283,Lot 347 P222001 ,96 Spencer Street ALBANY,ALBANY,WA,6330,-35.02259201,117.8867688
AGPR4271,Lot 4 of Plan TP842691J,250 Beach Road AVALON,AVALON,VIC,3212,-38.02395878,144.470039
AGPR425,Lot 10  DP1159973,10 The Crescent PENRITH,PENRITH,NSW,2750,-33.75018261,150.7001183
AGPR4199,Lot 1 of Plan TP864302A,Sisely Avenue WANGARATTA,WANGARATTA,VIC,3677,-36.35916359,146.2993205
AGPR419,Lot 1  DP812885,1 Hills Street BANKSMEADOW,BANKSMEADOW,NSW,2019,-33.95696432,151.2075393
AGPR418,Lot 59 Plan 754905,Majura Road SUTTON,SUTTON,NSW,2620,-35.21979917,149.2090163
AGPR417,Lot 305 Plan 754882,Majura Road SUTTON,SUTTON,NSW,2620,-35.21952953,149.2124527
AGPR416,Lot 199 Plan 754905,Majura Road SUTTON,SUTTON,NSW,2620,-35.22260822,149.2053944
AGPR415,Lot 194 Plan 754905,Majura Road SUTTON,SUTTON,NSW,2620,-35.22540703,149.2048324
AGPR414,Lot 193 Plan 754905,Majura Road SUTTON,SUTTON,NSW,2620,-35.2257761,149.2084036
AGPR413,Lot 140 Plan 754905,Majura Road SUTTON,SUTTON,NSW,2620,-35.22797418,149.2066871
AGPR412,Lot 139 Plan 754905,Majura Road SUTTON,SUTTON,NSW,2620,-35.2281603,149.2054342
AGPR411,Lot 121 Plan 754905,Majura Road SUTTON,SUTTON,NSW,2620,-35.21791488,149.2063226
AGPR410,Lot 10 Plan 754905,Majura Road SUTTON,SUTTON,NSW,2620,-35.22328555,149.2093596
AGPR406,Lot 21 Plan 595513,Hambledon Hill Road GOWRIE,GOWRIE,NSW,2330,-32.5718637,151.1561579
AGPR404,Lot 11 Plan 803038,Heathcote Road PLEASURE POINT,PLEASURE POINT,NSW,2172,-33.965392,150.970531
AGPR403,Lot 1 on SP128009,Centenary Highway GREENBANK,GREENBANK,QLD,4124,-27.649908,152.943104
AGPR401,Lot A on NR7146,Swallow Road EDMONTON,EDMONTON,QLD,4869,-16.99688611,145.7553278
AGPR400,Lot 14 on RP607685,26 Quarrian Road LONGREACH,LONGREACH,QLD,4730,-23.44288404,144.2629268
AGPR399,Lot 7  DP261177,4 Macquarie Drive NARROMINE,NARROMINE,NSW,2821,-32.23817098,148.2569655
AGPR398,Lot 34  DP258288,10 Pinnacles Road BROKEN HILL,BROKEN HILL,NSW,2880,-31.98790692,141.4293932
AGPR3937,Lot 1 of Plan TP915496C,Morris Street WILLIAMSTOWN,WILLIAMSTOWN,VIC,3016,-37.8685781,144.9064359
AGPR3931,Lot 1 of Plan TP391022R,Popples Lane HILLDENE,HILLDENE,VIC,3660,-37.0142102,145.0769386
AGPR3799,Lot 1 of Plan TP568177B,Market Street KYNETON,KYNETON,VIC,3444,-37.24909552,144.4541537
AGPR3798,Lot 1 of Plan TP244533N,Manse Hill Road SEYMOUR,SEYMOUR,VIC,3660,-37.02715593,145.1058141
AGPR3785,Lot 1 of Plan TP858989S,Maher Road LAVERTON,LAVERTON,VIC,3028,-37.86580309,144.761423
AGPR3761,Lot 27 of Plan TP678929P,Legges Road DUTSON,DUTSON,VIC,3851,-38.14327957,147.2497664
AGPR3741,CA 70B Parish of Moormbool East,Heathcote-Nagambie Road GRAYTOWN,GRAYTOWN,VIC,3608,-36.83386224,144.9452182
AGPR3736,CA 2C Section 58 City of Port Melbourne Parish of Melbourne South,502-550 Lorimer Street PORT MELBOURNE,PORT MELBOURNE,VIC,3207,-37.82251272,144.912452
AGPR3735,CA 2D Section 58 City of Port Melbourne Parish of Melbourne South,502-550 Lorimer Street PORT MELBOURNE,PORT MELBOURNE,VIC,3207,-37.82601432,144.9118377
AGPR3639,CA 1B Section 2B Parish of Paywit,Bridge Street QUEENSCLIFF,QUEENSCLIFF,VIC,3225,-38.26307096,144.6653112
AGPR3635,Lot RES1 of Plan LP210384X,Appleby Court SUNSHINE,SUNSHINE,VIC,3020,-37.78530832,144.8458281
AGPR3613,Lot 10 of Plan TP825540D,Aerodrome Road SALE,SALE,VIC,3852,-38.1053609,147.1471097
AGPR3608,CA 16A Section T Parish of Benalla,161 Link Road BENALLA,BENALLA,VIC,3672,-36.48859511,145.9992283
AGPR3606,Lot 4 of Plan TP915461X,A56 Dublin Road RINGWOOD EAST,RINGWOOD EAST,VIC,3135,-37.81382522,145.247329
AGPR3599,Lot 6 of Plan TP919543Y,A1 Dalzell Road COOK,COOK,VIC,3027,-37.92339261,144.7443155
AGPR3588,Lot 10 of Plan LP003635,95 Baillie Street HORSHAM,HORSHAM,VIC,3400,-36.71284178,142.2059942
AGPR3587,CA 20A Township of Flinders Parish of Flinders,92 The Esplanade FLINDERS,FLINDERS,VIC,3929,-38.48422273,145.030081
AGPR3576,Lot 16 of Plan TP097266B,858 Seymour-Avenel Road MANGALORE,MANGALORE,VIC,3663,-36.93789898,145.1792733
AGPR3568,Lot 1 of Plan TP748853J,84 Ligar Street BAIRNSDALE,BAIRNSDALE,VIC,3875,-37.83242185,147.6199524
AGPR3567,Lot 1 of Plan LP062327,83-85 Sisely Avenue WANGARATTA,WANGARATTA,VIC,3677,-36.35955456,146.2981934
AGPR3563,Lot 5 of Plan TP836007L,81 Bonegilla Road BONEGILLA,BONEGILLA,VIC,3691,-36.13595023,147.000988
AGPR3558,Lot 2 of Plan TP293590,77-79 Black Range Road ROMSEY,ROMSEY,VIC,3434,-37.39741111,144.735675
AGPR3553,Lot 2 of Plan TP583690C,720 Dandos Road WILSON,WILSON,VIC,3212,-38.07155757,144.4992279
AGPR3551,Lot 2 of Plan LP064516,67 Royal Avenue SANDRINGHAM,SANDRINGHAM,VIC,3191,-37.95872612,145.0183546
AGPR3549,Lot 1 of Plan PS422365E,65 Princes Highway DANDENONG SOUTH,DANDENONG SOUTH,VIC,3175,-38.00275021,145.2411934
AGPR3548,Lot 1 of Plan TP905442J,63-37 Queen Street COLAC,COLAC,VIC,3250,-38.34043203,143.5920145
AGPR3547,Lot 1 of Plan TP866166,619 Lower Plenty Road VIEWBANK,VIEWBANK,VIC,3084,-37.72803831,145.1005126
AGPR3546,CA 67F Parish of Prahran,43014 Chapel Street ST KILDA,ST KILDA,VIC,3182,-37.85996262,144.9920637
AGPR3544,Lot 2 of Plan TP908245U,51 Manningtree Road HAWTHORN,HAWTHORN,VIC,3122,-37.82338516,145.030547
AGPR3543,Lot 1 of Plan TP222009F,48 Sherbourne Terrace NEWTOWN,NEWTOWN,VIC,3220,-38.14081531,144.324613
AGPR3541,CA 9 Section 34 at Carlton Parish of Jika Jika,45-65 Grattan Street CARLTON,CARLTON,VIC,3053,-37.80101627,144.9676656
AGPR3493,Lot 1 of Plan LP064370,259-263 Ogilvie Avenue ECHUCA,ECHUCA,VIC,3564,-36.14113513,144.7472143
AGPR3492,CA 45 Section D City of South Melbourne ,256-310 St Kilda Road SOUTHBANK,SOUTHBANK,VIC,3006,-37.8274923,144.9699599
AGPR3491,Plan PC352421Y,255 Monash Road NEWBOROUGH,NEWBOROUGH,VIC,3825,-38.17415973,146.3096844
AGPR3490,Lot 1 of Plan TP908245U,210 Burwood Road HAWTHORN,HAWTHORN,VIC,3122,-37.82225302,145.0307475
AGPR3450,Lot 1 of Plan TP824086E,2 Yallambie Road YALLAMBIE,YALLAMBIE,VIC,3085,-37.73151817,145.0798385
AGPR3445,Lot 2 of Plan TP864736P,2 Cordite Avenue MARIBYRNONG,MARIBYRNONG,VIC,3032,-37.76936403,144.882437
AGPR3440,CA 37B Parish of Wellsford,199 Atlas Road JUNORTOUN,JUNORTOUN,VIC,3551,-36.76162147,144.3680037
AGPR3438,Plan PC354907K,194 Myers Street GEELONG,GEELONG,VIC,3220,-38.15320757,144.3645153
AGPR3437,Lot 1 of Plan TP677419U,186-190 San Mateo Avenue MILDURA,MILDURA,VIC,3500,-34.1950282,142.1611438
AGPR3435,Plan PC367022F,1806-1812 Sturt Street ALFREDTON,ALFREDTON,VIC,3350,-37.54601137,143.7988413
AGPR3434,Lot 1 of Plan TP677328X,17 Robinson Road SURREY HILLS,SURREY HILLS,VIC,3127,-37.8241836,145.092183
AGPR3430,Lot 3 of Plan TP895985R,1675 Kilmore Road MONEGEETTA,MONEGEETTA,VIC,3433,-37.42208174,144.7306488
AGPR3405,Lot 1 of Plan TP675630K,153 Myers Road BITTERN,BITTERN,VIC,3918,-38.34011071,145.1584019
AGPR3404,CA 28A Section A Parish of Moormbool West,1486 Costerfield Road GRAYTOWN,GRAYTOWN,VIC,3608,-36.84068543,144.9313381
AGPR3403,Lot 1 of Plan TP228338C,1318-1338 North Road OAKLEIGH SOUTH,OAKLEIGH SOUTH,VIC,3167,-37.91239686,145.1075599
AGPR3401,CA 7D Section 3 at Essendon Parish of Doutta Galla,127-135 Pascoe Vale Road MOONEE PONDS,MOONEE PONDS,VIC,3039,-37.76012713,144.9258767
AGPR3400,CA 7A Section 3 at Essendon Parish of Doutta Galla,127-135 Pascoe Vale Road MOONEE PONDS,MOONEE PONDS,VIC,3039,-37.76012713,144.9258767
AGPR3398,Lot 1 of Plan PS400773M,4227 ANZAC Parade BANDIANA,BANDIANA,VIC,3691,-36.14635098,146.9488088
AGPR3397,Lot 2 of Plan PS514673F,120-150 Camp Road BROADMEADOWS,BROADMEADOWS,VIC,3047,-37.68802532,144.9442812
AGPR3394,CA 3 Section 4B Township of Warrnambool Parish of Wangoom,43770 Pertobe Road WARRNAMBOOL,WARRNAMBOOL,VIC,3280,-38.39544418,142.4729282
AGPR3392,CA 2 Section 14A Township of Shepparton ,108-110 Sobraon Street SHEPPARTON,SHEPPARTON,VIC,3630,-36.3868391,145.4052927
AGPR3355,CA 17 Section C Parish of Northwood,Shell Track PUCKAPUNYAL,PUCKAPUNYAL,VIC,3662,-36.95293734,145.0514106
AGPR3323,Lot 1 of Plan LP210383A,101 Duke Street SUNSHINE,SUNSHINE,VIC,3020,-37.78452397,144.8454278
AGPR3322,Lot 1 of Plan TP257226A,101-121 Gray Street SWAN HILL,SWAN HILL,VIC,3585,-35.34707164,143.545473
AGPR3320,CA 3 Section F2 Township of Kyneton Parish of Lauriston,10 Market Street KYNETON,KYNETON,VIC,3444,-37.24892712,144.454025
AGPR3319,Lot 1 of Plan TP864067H,Main Road SWAN ISLAND,SWAN ISLAND,VIC,3225,-38.25064051,144.6737247
AGPR3318,Lot 1 of Plan PS418502V,1 King Street QUEENSCLIFF,QUEENSCLIFF,VIC,3225,-38.27135454,144.659628
AGPR3304,Lot 21 of Plan TP877881G,Sandy Point Road CERBERUS,CERBERUS,VIC,3920,-38.3814833,145.1998307
AGPR3278,Lot 14 of Plan LP068324,42979 Whiton Street WAVERLEY,WAVERLEY,VIC,3149,-37.89563307,145.1074548
AGPR3276,Volume 11530 Folio 1,Swanston Road BUCKLAND,BUCKLAND,TAS,7190,-42.44777,147.72891
AGPR3275,Volume 41804 Folio 1,Beechford Road STONY HEAD,STONY HEAD,TAS,7252,-41.01362,146.97241
AGPR3274,Volume 202633 Folio 1,Beechford Road STONY HEAD,STONY HEAD,TAS,7252,-41.0191,146.97691
AGPR3273,Volume 105609 Folio 1,96-120 Davey Street HOBART,HOBART,TAS,7000,-42.88934872,147.3259536
AGPR3272,Volume 250783 Folio 1,74 George Street SCOTTSDALE,SCOTTSDALE,TAS,7260,-41.15307,147.5127
AGPR3271,Volume 85202 Folio 1,720 Beechford Road STONY HEAD,STONY HEAD,TAS,7252,-41.02216,147.03012
AGPR3270,Volume 127834 Folio 1,720 Beechford Road STONY HEAD,STONY HEAD,TAS,7252,-41.02018,147.01798
AGPR3269,Volume 93807 Folio 1,720 Beechford Road STONY HEAD,STONY HEAD,TAS,7252,-40.99642,147.03315
AGPR3266,Volume 234521 Folio 1,2B Goodwood Road DOWSING POINT,DOWSING POINT,TAS,7010,-42.82275,147.29541
AGPR3265,Volume 104623 Folio 3,256-260 Hobart Road YOUNGTOWN,YOUNGTOWN,TAS,7249,-41.47877,147.16302
AGPR3264,Volume 54427 Folio 2,43010 St John Street LAUNCESTON,LAUNCESTON,TAS,7250,-41.43326,147.13538
AGPR3263,Volume 84951 Folio 1,155 Cambridge Road WARRANE,WARRANE,TAS,7018,-42.86436,147.37652
AGPR3262,Volume 37373 Folio 1,141 Fort Direction Road SOUTH ARM,SOUTH ARM,TAS,7022,-43.04196,147.42157
AGPR3260,Volume 22547 Folio 1,42795 Ready Street WIVENHOE,WIVENHOE,TAS,7320,-41.06946,145.92912
AGPR3259,Volume 74384 Folio 2,106 Gunn Street DEVONPORT,DEVONPORT,TAS,7310,-41.16643,146.35648
AGPR3246,Volume 5571 Folio 427,Government Road PIMBA,PIMBA,SA,5720,-31.21839657,136.7739418
AGPR3237,Volume 5873 Folio 825,17-29 Caroline Street MURRAY BRIDGE,MURRAY BRIDGE,SA,5253,-35.12041484,139.261319
AGPR3232,Volume 5314 Folio 111,Army Range Road BURDETT,BURDETT,SA,5253,-35.10882785,139.402615
AGPR322,Lot 50 D034438 ,Barney Road CHADWICK,CHADWICK,WA,6450,-33.83035768,121.8920182
AGPR321,Volume 247275 Folio 1,Woolnorth Road WOOLNORTH,WOOLNORTH,TAS,7330,-40.68305,144.69004
AGPR320,Volume 13191 Folio 1,Woolnorth Road WOOLNORTH,WOOLNORTH,TAS,7330,-40.68075,144.69203
AGPR319,Volume 199514 Folio 1,346 Proctors Road KINGSTON,KINGSTON,TAS,7050,-42.93626,147.31769
AGPR3185,Volume 5327 Folio 419,Government Road PORT WAKEFIELD,PORT WAKEFIELD,SA,5550,-34.24834177,138.1823555
AGPR3183,Volume 5165 Folio 412,Pimba Road WOOMERA,WOOMERA,SA,5720,-31.15654276,136.8177141
AGPR318,Volume 125704 Folio 1,18 Ellerslie Road BATTERY POINT,BATTERY POINT,TAS,7004,-42.88987,147.32753
AGPR3179,Volume 5743 Folio 172,Morphett Road OAKLANDS PARK,OAKLANDS PARK,SA,5046,-34.998492,138.5397303
AGPR317,Volume 5526 Folio 587 Lot 26 Plan D49351 ,College Road KENT TOWN,KENT TOWN,SA,5067,-34.92103,138.6215275
AGPR3167,Volume 6122 Folio 90,Morialta Drive SMITHFIELD,SMITHFIELD,SA,5114,-34.69037982,138.681831
AGPR3166,Volume 5489 Folio 317,Stuart Highway COONDAMBO,COONDAMBO,SA,5719,-30.87559787,136.1313322
AGPR3165,Volume 5840 Folio 857,Morphett Road OAKLANDS PARK,OAKLANDS PARK,SA,5046,-34.99810296,138.5396325
AGPR3163,Volume 5875 Folio 194,Jenkins Street NEW PORT,NEW PORT,SA,5015,-34.8410406,138.4992533
AGPR3162,Volume 6165 Folio 482 Lot 4 Plan H540300 ,Old Whyalla Road PORT AUGUSTA WEST,PORT AUGUSTA WEST,SA,5700,-32.62020335,137.6517537
AGPR3161,Volume 5396 Folio 662,Fleetwing Road WINDSOR,WINDSOR,SA,5501,-34.41102493,138.2548736
AGPR3160,Volume 5864 Folio 105,Stuart Highway WIRRAMINNA,WIRRAMINNA,SA,5719,-30.94938818,136.5531578
AGPR316,Lot 11 on SP188323,Yellowwood Road STAPYLTON,STAPYLTON,QLD,4207,-27.71774886,153.2399745
AGPR3157,Volume 6114 Folio 320,Heaslip Road PENFIELD,PENFIELD,SA,5121,-34.70985353,138.6272541
AGPR3154,Volume 5246 Folio 311,Lorne Road WILD HORSE PLAINS,WILD HORSE PLAINS,SA,5501,-34.38072175,138.245899
AGPR3152,Volume 5889 Folio 120 Lot 22 Plan D17665 ,Point Lowly Road FALSE BAY,FALSE BAY,SA,5601,-32.86277687,137.7207136
AGPR3151,Volume 5494 Folio 325,Gawler River Road WILLASTON,WILLASTON,SA,5118,-34.59000091,138.7337568
AGPR314,Lot 1 on RP132255,Repeater Station Road KANINGAN,KANINGAN,QLD,4570,-25.95729893,152.5770749
AGPR3130,Volume 5596 Folio 108,Point Lowly Road FALSE BAY,FALSE BAY,SA,5601,-32.84719608,137.6759259
AGPR313,Lot 11 on SP180203,Mount Bassett Drive MACKAY HARBOUR,MACKAY HARBOUR,QLD,4740,-21.11720395,149.2169318
AGPR3129,Volume 5889 Folio 117,Government Road JENKINS,JENKINS,SA,5601,-32.91019818,137.7095066
AGPR3128,Volume 5335 Folio 228,Crawford Terrace BERRI,BERRI,SA,5343,-34.2843504,140.5959134
AGPR3126,Volume 6169 Folio 800 ,93 Winch Road COOMUNGA,COOMUNGA,SA,5607,-34.67751517,135.7333788
AGPR3125,Volume 5851 Folio 787,81 Shepherdson Road MOUNT GAMBIER,MOUNT GAMBIER,SA,5290,-37.82956121,140.7588823
AGPR3124,Volume 5460 Folio 261,68 Flinders Highway PORT LINCOLN,PORT LINCOLN,SA,5606,-34.71602702,135.8438863
AGPR3122,Volume 5843 Folio 301,PORT LORNE Road PROOF RANGE,PROOF RANGE,SA,5550,-34.25957496,138.1857324
AGPR3120,Volume 5961 Folio 636,500 Morialta Drive SMITHFIELD,SMITHFIELD,SA,5114,-34.69035616,138.6819173
AGPR312,Lot 202 on CP905383,Marian Street MILES,MILES,QLD,4415,-26.65687605,150.1819792
AGPR3114,Volume 5892 Folio 948,301 Government Road PORT WAKEFIELD,PORT WAKEFIELD,SA,5550,-34.24303332,138.1741661
AGPR3113,Volume 5793 Folio 439,Beare Street CLARE,CLARE,SA,5453,-33.84020766,138.6142118
AGPR3112,Volume 5435 Folio 738,25 Lorne Road WILD HORSE PLAINS,WILD HORSE PLAINS,SA,5501,-34.25125028,138.2113033
AGPR3111,Volume 5228 Folio 281,25 Lorne Road WILD HORSE PLAINS,WILD HORSE PLAINS,SA,5501,-34.3019809,138.2382641
AGPR3107,Volume 5185 Folio 929,201 Oaklands Road OAKLANDS PARK,OAKLANDS PARK,SA,5046,-34.99862834,138.5452324
AGPR3103,Volume 5169 Folio 664,16 Muller Road GREENACRES,GREENACRES,SA,5086,-34.87040542,138.6210283
AGPR3099,Volume 5892 Folio 950,125-133 Warnertown Road SOLOMONTOWN,SOLOMONTOWN,SA,5540,-34.23038476,138.1734141
AGPR3096,Volume 5554 Folio 118,101 ANZAC Highway KESWICK,KESWICK,SA,5035,-34.94607639,138.5816837
AGPR3094,Volume 5817 Folio 7,1 Frances Terrace KADINA,KADINA,SA,5554,-33.96204615,137.705858
AGPR3093,Volume 5782 Folio 195,Olympic Dam Highway WOOMERA,WOOMERA,SA,5720,-31.1488971,136.7938698
AGPR3080,Lot 27 on RP221248,Tin Can Bay Road TIN CAN BAY,TIN CAN BAY,QLD,4580,-25.90360417,152.9390772
AGPR308,Lot 1 on RP732399,32 Conway Street COLLINSVILLE,COLLINSVILLE,QLD,4804,-20.55334165,147.8464311
AGPR3071,Lot 90 on RP857088,Thomson Developmental Road LONGREACH,LONGREACH,QLD,4730,-23.665275,144.1595889
AGPR3065,Lot 1 on RP81671,Sussex Street MARYBOROUGH,MARYBOROUGH,QLD,4650,-25.53555284,152.7018184
AGPR3061,Lot 32 on RP721204,Summers Street THURSDAY ISLAND,THURSDAY ISLAND,QLD,4875,-10.58097326,142.2255659
AGPR306,Lot 2 on RP889751,221 Murray Road WOODSTOCK,WOODSTOCK,QLD,4816,-19.6313813,146.8580003
AGPR3059,Lot 11 on RP857090,Stonehenge Warbreccan Road STONEHENGE,STONEHENGE,QLD,4730,-24.28905,143.1482167
AGPR304,Lot 1 on SP265794,12363 Barkly Highway MOUNT ISA,MOUNT ISA,QLD,4825,-20.58966602,139.3411541
AGPR298,Lot 3  DP223276,84 Louth Road COBAR,COBAR,NSW,2835,-31.48513819,145.8286012
AGPR297,Lot 2  DP223276,84 Louth Road COBAR,COBAR,NSW,2835,-31.48458675,145.8292962
AGPR295,Lot 5  DP221387,12 Werombi Road GRASMERE,GRASMERE,NSW,2570,-34.05534404,150.6738596
AGPR2943,Lot 19 on RP898342,Stanage Bay Road SHOALWATER,SHOALWATER,QLD,4702,-22.56222119,150.5360894
AGPR294,Lot 4  DP221387,12 Werombi Road GRASMERE,GRASMERE,NSW,2570,-34.05596877,150.6730951
AGPR2922,Lot 1 on SP105871,Samphire Drive RAILWAY ESTATE,RAILWAY ESTATE,QLD,4810,-19.27650248,146.8274914
AGPR2914,Lot 208 on RP716008,Wollingford Road MARIAN,MARIAN,QLD,4753,-21.18224735,148.9952155
AGPR2913,Lot 3 on RP31841,Red Bridge Court STANTHORPE,STANTHORPE,QLD,4380,-28.66195229,151.9399844
AGPR2912,Lot 4 on RP31841,Red Bridge Court STANTHORPE,STANTHORPE,QLD,4380,-28.66205513,151.9401412
AGPR2911,Lot 2 on RP31841,Red Bridge Court STANTHORPE,STANTHORPE,QLD,4380,-28.6618513,151.9398384
AGPR2908,Lot 1 on RP27200,Quarry Road ST HELENS,ST HELENS,QLD,4650,-25.49155472,152.6961498
AGPR2906,Lot B on NR5692,Palmerston Highway EAST PALMERSTON,EAST PALMERSTON,QLD,4860,-17.706741,145.832186
AGPR2903,Lot 422 on RP859798,Peninsula Developmental Road MISSION RIVER,MISSION RIVER,QLD,4874,-12.63045891,142.0850067
AGPR2895,Lot 3 on RP179454,Off Mudslock Road COLEYVILLE,COLEYVILLE,QLD,4307,-27.787836,152.557439
AGPR2887,Lot 8 on RP88219,Orr Road OAKEY,OAKEY,QLD,4401,-27.40386391,151.7286417
AGPR2880,Lot 51 on SP123471,Mungkan Street COEN,COEN,QLD,4892,-13.94696537,143.1970394
AGPR2878,Lot 1 on RP129718,Mount Norman Road WALLANGARRA,WALLANGARRA,QLD,4383,-28.90688386,151.9339383
AGPR2877,Lot 33 on CP866936,Mount Kooroomool Road WALTER HILL,WALTER HILL,QLD,4854,-17.76852853,145.799637
AGPR2874,Lot 3 on RP727507,Marlow Street PALLARENDA,PALLARENDA,QLD,4810,-19.18970078,146.7649672
AGPR2868,Lot 12 on RP847147,Longreach Tocal Road LONGREACH,LONGREACH,QLD,4730,-23.65364216,144.1118939
AGPR2864,Lot 296 on RP805003,Inarlinga Road COWLEY BEACH,COWLEY BEACH,QLD,4871,-17.62177417,146.1035384
AGPR2837,Lot 301 on RN1042,Lawrence Street BILOELA,BILOELA,QLD,4715,-24.39663016,150.5204059
AGPR2834,Lot 9 on RD48,550 Barkly Highway KALKADOON,KALKADOON,QLD,4825,-20.66979151,139.492877
AGPR2830,Lot 78 on RD224,16 Ryan Road RYAN,RYAN,QLD,4825,-20.69975024,139.497599
AGPR2828,Lot 1 on R8684,259 Edwardes Street ROMA,ROMA,QLD,4455,-26.56752359,148.7962117
AGPR2827,Lot 1 on PS64,HIGH PEAK ISLET,HIGH PEAK ISLET,QLD,4702,-21.953155,150.692166
AGPR2826,Lot 1 on PER4767,Warrill View Peak Crossing Road WARRILL VIEW,WARRILL VIEW,QLD,4307,-27.81335352,152.6417518
AGPR2825,Lot 1 on PER4766,Keanes Road EBENEZER,EBENEZER,QLD,4340,-27.65916447,152.6035917
AGPR2821,Lot 567 on NR7860,KENT ISLAND,KENT ISLAND,QLD,4871,-17.67617,146.179937
AGPR2819,Lot 290 on NR5395,Park Street INNISFAIL,INNISFAIL,QLD,4860,-17.51739082,146.0274489
AGPR2817,Lot 867 on NR4553,2A Abbott Street MAREEBA,MAREEBA,QLD,4880,-16.9887813,145.4176286
AGPR2816,Lot 37 on NR2096,RUSSELL ISLAND,RUSSELL ISLAND,QLD,4184,-17.22874288,146.0941658
AGPR2803,Lot 3 on ME8,PIPON ISLAND,PIPON ISLAND,QLD,4892,-14.12244178,144.5136022
AGPR2802,Lot 2 on ME8,PIPON ISLAND,PIPON ISLAND,QLD,4892,-14.12906162,144.5154299
AGPR2801,Lot 1 on ME1,COQUET ISLAND,COQUET ISLAND,QLD,4895,-14.540993,144.992324
AGPR2800,Lot 27 on MCH562,Boongoola Road MARYBOROUGH,MARYBOROUGH,QLD,4650,-25.50117624,152.6912612
AGPR2798,Lot 1 on M2094,16 Sussex Street MARYBOROUGH,MARYBOROUGH,QLD,4650,-25.53550358,152.7023066
AGPR2797,Lot 412 on LN2447,45323 Western Street WEST ROCKHAMPTON,WEST ROCKHAMPTON,QLD,4700,-23.36822969,150.4853701
AGPR2792,Lot 72 on K124997,Hervey Range Road DOTSWOOD,DOTSWOOD,QLD,4820,-19.42825979,146.2295517
AGPR279,Lot 1 of Plan TP866166U,619 Lower Plenty Road VIEWBANK,VIEWBANK,VIC,3084,-37.72891268,145.1003781
AGPR2758,Lot 1 on JD1,HANNIBAL ISLAND,HANNIBAL ISLAND,QLD,4874,-11.591183,142.942451
AGPR2756,Lot 2 on HT613,3 Turpentine Street BLACKWATER,BLACKWATER,QLD,4717,-23.59340855,148.8783717
AGPR2755,Lot 1 on HR561,COPPERSMITH REEF,COPPERSMITH REEF,QLD,4799,-20.598472,149.116861
AGPR2754,Lot 4 on HR560,ESHELBY ISLAND,ESHELBY ISLAND,QLD,4800,-20.02235146,148.6276712
AGPR2753,Lot 4 on HR2019,DENT ISLAND,DENT ISLAND,QLD,4803,-20.37191769,148.9351873
AGPR2752,Lot 3 on HR2019,DENT ISLAND,DENT ISLAND,QLD,4803,-20.37594122,148.9402838
AGPR2751,Lot 2 on HR2019,DENT ISLAND,DENT ISLAND,QLD,4803,-20.36940278,148.9287056
AGPR2750,Lot 1 on HR2019,DENT ISLAND,DENT ISLAND,QLD,4803,-20.36941667,148.9286667
AGPR2749,Lot 105 on GS546,46 Little Drysdale Street AYR,AYR,QLD,4807,-19.58279376,147.406003
AGPR2747,Lot 163 on FY713,89 Bramston Street WONDAI,WONDAI,QLD,4606,-26.32505693,151.8801851
AGPR2745,Lot 7 on FD1025,NORTH REEF,NORTH REEF,QLD,4700,-23.183157,151.905542
AGPR2733,Lot 1 on RP20230,469A Settlement Road KEPERRA,KEPERRA,QLD,4054,-27.42457136,152.957046
AGPR2666,Lot 238 on RP716164,Everett Street BOHLE,BOHLE,QLD,4818,-19.23986142,146.720005
AGPR2664,Lot 1 on RP721953,Dalyrmple Road MOUNT LOUISA,MOUNT LOUISA,QLD,4814,-19.27990066,146.7431185
AGPR2659,Lot 124 on EP2177,RATTLE SNAKE ISLAND,RATTLE SNAKE ISLAND,QLD,4805,-19.03204,146.615592
AGPR2658,Lot 2 on RP129712,Coomera Gorge Drive TAMBORINE MOUNTAIN,TAMBORINE MOUNTAIN,QLD,4272,-27.97812714,153.2166505
AGPR2657,Lot 11 on RP221248,Cooloola Coast Road TIN CAN BAY,TIN CAN BAY,QLD,4580,-25.85140007,153.0245835
AGPR2656,Lot 6 on RP63280,Brymaroo Irvingdale Road BRYMAROO,BRYMAROO,QLD,4403,-27.22981927,151.6134281
AGPR2651,Lot 1 on RP36812,Blaxland Irvingdale Road BOWENVILLE,BOWENVILLE,QLD,4404,-27.21809691,151.4968715
AGPR2650,Lot 1 on RP87353,Behms Street YAMANTO,YAMANTO,QLD,4305,-27.63934238,152.7252314
AGPR2585,Lot 2 on RP140278,Beaudesert Nerang Road WITHEREN,WITHEREN,QLD,4275,-28.02389256,153.1844413
AGPR2583,Lot 126 on EP1715,20 Hurst Street MAGNETIC ISLAND,MAGNETIC ISLAND,QLD,4819,-19.17353206,146.8365633
AGPR2575,Lot 216 on EP1712,614 Angus Smith Drive MOUNT STUART,MOUNT STUART,QLD,4811,-19.35717601,146.7406611
AGPR2570,Lot 568 on EP1606,The Esplanade PALLARENDA,PALLARENDA,QLD,4810,-19.1892281,146.756326
AGPR2568,Lot 15 on EP1342,Sharps Road HERVEY RANGE,HERVEY RANGE,QLD,4817,-19.37897465,146.4740576
AGPR2532,Lot 45 on SP248023,Barkly Highway MOUNT ISA,MOUNT ISA,QLD,4825,-20.71104739,139.5551768
AGPR2525,Lot 16 on SP145563,Airport Road HORN ISLAND,HORN ISLAND,QLD,4875,-10.59641111,142.2919639
AGPR2505,Lot 2 Plan RP713936,9 Summers Street THURSDAY ISLAND,THURSDAY ISLAND,QLD,4875,-10.58099004,142.2250733
AGPR2503,Lot 10 on RP808672,9 Nealdon Drive MEADOWBROOK,MEADOWBROOK,QLD,4131,-27.66635846,153.1376224
AGPR2502,Lot 5 on RP740834,9 Mcconaghie Street ATHERTON,ATHERTON,QLD,4883,-17.2692822,145.4727246
AGPR2501,Lot 13 Plan SP108539,9 Lambert Road INDOOROOPILLY,INDOOROOPILLY,QLD,4068,-27.50427299,152.9755126
AGPR2491,Lot 36 on DS564,RUNDLE ISLAND,RUNDLE ISLAND,QLD,4695,-23.531442,151.277223
AGPR2487,Lot 1 on RP179314,83 Rifle Range Road GOOLMAN,GOOLMAN,QLD,4306,-27.71818554,152.7630975
AGPR2486,Lot 329 on RP145429,83 Petrie Terrace PETRIE TERRACE,PETRIE TERRACE,QLD,4000,-27.46453871,153.0147075
AGPR2472,Lot 3 on CWL839,SOUTH ISLAND OF THE BROOK ISLANDS,SOUTH ISLAND OF THE BROOK ISLANDS,QLD,4849,-18.15714,146.30455
AGPR2467,Lot 3 on RP895734,89-93 Duckworth Street GARBUTT,GARBUTT,QLD,4814,-19.27093013,146.7587271
AGPR2465,Lot 103 on CWL1989,Townsville Road INGHAM,INGHAM,QLD,4850,-18.66444147,146.1525968
AGPR2449,Lot 273 on CTN1379,257 Goodoon Street SOUTH GLADSTONE,SOUTH GLADSTONE,QLD,4680,-23.85517801,151.2625438
AGPR2445,Lot 1 on RP227742,63 Cordwell Road YANDINA,YANDINA,QLD,4561,-26.57402145,152.9581436
AGPR2443,Lot 1 on CI993,BAILEY ISLET,BAILEY ISLET,QLD,4740,-21.030949,149.54929
AGPR2442,Lot 4 on CI4391,REEF,REEF,QLD,4799,-20.57635,150.439122
AGPR2441,Lot 3 on CI2110,PENRITH ISLAND,PENRITH ISLAND,QLD,4740,-21.00947372,149.9035311
AGPR2440,Lot 412 on CI1971,400 Shakespeare Street MACKAY,MACKAY,QLD,4740,-21.14512907,149.1702832
AGPR2432,Lot 325 on RP152484,6 Matheson Street DALBY,DALBY,QLD,4405,-27.18064124,151.2696179
AGPR2420,Lot 9 on RP808672,42921 Nealdon Drive MEADOWBROOK,MEADOWBROOK,QLD,4131,-27.66690682,153.137516
AGPR2415,Lot 2 Plan RP57083,54 Grays Road GAYTHORNE,GAYTHORNE,QLD,4051,-27.42038357,152.9812993
AGPR2401,Lot 1 on RP705944,50-354 University Road MURRAY,MURRAY,QLD,4814,-19.32121599,146.8077511
AGPR2394,Lot 185 on CC2914,Galletly Road LAWES,LAWES,QLD,4343,-27.55713531,152.3390373
AGPR2388,Lot 2 on RP705942,50-354 Musgrave Road MURRAY,MURRAY,QLD,4814,-19.32636005,146.7893635
AGPR2387,Lot 1 Plan SP153011,50 Sugarmill Road PINKENBA,PINKENBA,QLD,4008,-27.42362315,153.0986279
AGPR2386,Lot 5 on RP148360,50 Quay Street BUNDABERG,BUNDABERG,QLD,4670,-24.86623879,152.3451006
AGPR2362,Lot 703 on CC2602,Rosewood Marburg Road TALLEGALLA,TALLEGALLA,QLD,4340,-27.60738879,152.5801944
AGPR2332,Lot 2 on RP722429,441 Ingham Road GARBUTT,GARBUTT,QLD,4814,-19.26394987,146.7616373
AGPR2297,Lot 1 on RP724238,351 Palmerston Highway STOTERS HILL,STOTERS HILL,QLD,4860,-17.53852504,145.968207
AGPR2292,Lot 27 on RP907108,33-49 Armand Way ARCADIA,ARCADIA,QLD,4819,-19.15067799,146.8689998
AGPR2283,Lot 3 on RP727482,31 Brisbane Street BOWEN,BOWEN,QLD,4805,-20.00618707,148.2444618
AGPR2281,Lot 26 Plan RP857825,300 Samford Road GAYTHORNE,GAYTHORNE,QLD,4051,-27.42276787,152.9766329
AGPR2261,Lot 3 on C198374,93-95 Kenny Street PORTSMITH,PORTSMITH,QLD,4870,-16.93513097,145.7717939
AGPR2260,Lot 2 on RP99201,29 Milford Street IPSWICH,IPSWICH,QLD,4305,-27.61949243,152.7656837
AGPR2257,Lot 11 on RP148330,29 Duke Street GYMPIE,GYMPIE,QLD,4570,-26.1871829,152.6580353
AGPR2247,Lot 1 on RP736114,271-279 Sheridan Street CAIRNS,CAIRNS,QLD,4870,-16.90960906,145.7612021
AGPR224,Lot 1 of Plan TP221179J,120 McArthurs Road SOUTH MORANG,SOUTH MORANG,VIC,3752,-37.61925,145.08154
AGPR223,Volume 35589 Folio 3,601 Back Tea Tree Road RICHMOND,RICHMOND,TAS,7025,-42.74258,147.33829
AGPR222,Volume 35589 Folio 1,601 Back Tea Tree Road RICHMOND,RICHMOND,TAS,7025,-42.74881,147.33557
AGPR221,Volume 197135 Folio 7,601 Back Tea Tree Road RICHMOND,RICHMOND,TAS,7025,-42.74564,147.33486
AGPR220,Volume 5929 Folio 216,32 Airport Road BROOKLYN PARK,BROOKLYN PARK,SA,5032,-34.93006,138.541998
AGPR219,Lot 2 on RP74062,362-388 Old Cleveland Road EAST BIRKENDALE,EAST BIRKENDALE,QLD,4159,-27.51172843,153.2020175
AGPR2189,Lot 136 on RP20228,270 Lloyd Street ENOGGERA,ENOGGERA,QLD,4051,-27.43393672,152.9635129
AGPR218,Lot 2 on RP14143,362-388 Old Cleveland Road EAST BIRKENDALE,EAST BIRKENDALE,QLD,4159,-27.51006908,153.2017032
AGPR217,Lot 1 on RP14143,362-388 Old Cleveland Road EAST BIRKENDALE,EAST BIRKENDALE,QLD,4159,-27.50807397,153.2010841
AGPR163,Block 11 Section 43 Division Yarralumla,71 State Circle PARKES,PARKES,ACT,2600,-35.30368,149.12288
AGPR1598,Lot 1 on BS813206,ROCKY ISLAND,ROCKY ISLAND,QLD,4895,-15.60692,145.335834
AGPR1579,Lot 183 on SP207572,19756 Draper Street PORTSMITH,PORTSMITH,QLD,4870,-16.93563511,145.7776157
AGPR1567,Lot 1 on RP735342,243-245 Sheridan Street CAIRNS,CAIRNS,QLD,4870,-16.91154138,145.7626214
AGPR1528,Lot 4 on SP211556,21A-33 Isley Street NORTH WARD,NORTH WARD,QLD,4810,-19.23961665,146.8025686
AGPR1527,Lot 3 on SP211556,21A-33 Isley Street NORTH WARD,NORTH WARD,QLD,4810,-19.2401942,146.8022271
AGPR1526,Lot 4 on RP738715,212 Endeavour Valley Road COOKTOWN,COOKTOWN,QLD,4895,-15.47242251,145.2203162
AGPR1463,Lot 55 on SP193147,8 Vickers Street EDMONTON,EDMONTON,QLD,4869,-17.00037038,145.7467801
AGPR1462,Lot 1 on RP189512,160 Wardoo Street ASHMORE,ASHMORE,QLD,4214,-27.97715322,153.390095
AGPR1447,Lot 133 on RP23324,1 Underhill Street ST LUCIA,ST LUCIA,QLD,4067,-27.49584764,153.0088169
AGPR1424,Lot 6 on RP179459,136-142 ANZAC Avenue HARRISTOWN,HARRISTOWN,QLD,4350,-27.56823637,151.9302547
AGPR1414,Lot 107 on RP706421,13 Brownlee Street WEBB,WEBB,QLD,4860,-17.5314555,146.0473838
AGPR1412,Lot 343 on RP145429,129 Petrie Terrace PETRIE TERRACE,PETRIE TERRACE,QLD,4000,-27.46462518,153.0154019
AGPR1400,Lot 12 on RP144619,119 Percy Street WARWICK,WARWICK,QLD,4370,-28.21776876,152.0266033
AGPR1393,Lot 11 on RP808672,41579 Nealdon Drive MEADOWBROOK,MEADOWBROOK,QLD,4131,-27.66641257,153.1371272
AGPR1392,Lot 28 on RP908709,41579 Concorde Place CABOOLTURE,CABOOLTURE,QLD,4510,-27.08121751,152.9785891
AGPR1388,Lot 173 on RP614437,11 Palm Drive GLADSTONE CENTRAL,GLADSTONE CENTRAL,QLD,4680,-23.843667,151.2422528
AGPR1381,Lot 108 on RP706421,11 Brownlee Street INNISFAIL,INNISFAIL,QLD,4860,-17.53127621,146.0474096
AGPR1374,Lot 2 on RP127288,10079 New England Highway CABARLAH,CABARLAH,QLD,4352,-27.44345222,151.9804384
AGPR1369,Lot 406 on RP718009,100 Bridge Road MACKAY,MACKAY,QLD,4740,-21.16203547,149.184442
AGPR007593,Lot 1 Plan DP91149 ,Goldfields Way Gidginbung,Gidginbung,NSW,,-34.327539,147.474442
AGPR007515,Block 4 Division of 80 District of Russell ,0 Russell Drive Drive RUSSELL,RUSSELL,ACT,2601,-35.294282,149.14617
AGPR007495,Volume 32500 Folio 2 ,39-41 Davey Street HOBART,HOBART,TAS,7000,-42.89,147.33
AGPR007494,Volume 32500 Folio 1 ,39-41 Davey Street HOBART,HOBART,TAS,7000,-42.88,147.33
